{
 "type": "FeatureCollection",
 "crs": {
  "type": "name",
  "properties": {
   "name": "urn:ogc:def:crs:EPSG::25833"
  }
 },
 "bbox": [
  155904,
  6826880,
  176384,
  6843264
 ],
 "features": [
  {
   "type": "Feature",
   "geometry": {
    "type": "Polygon",
    "coordinates": [
     [[157923.04,6842604.8],[157973.27,6842580.88],[158110.69,6842492.89],[158224.33,6842451.48],[158343.44,6842370.0],[158381.71,6842326.59],[158492.01,6842162.19],[158534.37,6842068.54],[158546.17,6841954.99],[158687.62,6841828.54],[158751.21,6841796.0],[158800.43,6841782.07],[158912.32,6841778.3],[159134.26,6841907.3],[159316.62,6841958.19],[159448.54,6841964.03],[159543.99,6842017.04],[159594.8,6842022.84],[159658.06,6842059.5],[159747.09,6842072.63],[159773.65,6842069.58],[159787.1,6842055.79],[159784.4,6842039.29],[159720.77,6842007.91],[159499.76,6841871.58],[159376.28,6841812.14],[159277.27,6841744.27],[159292.19,6841742.63],[159419.82,6841796.5],[159682.71,6841946.89],[159774.64,6841984.6],[159830.41,6841995.73],[159855.26,6841991.99],[159878.43,6841971.63],[159876.47,6841958.44],[159742.33,6841870.36],[159721.84,6841847.92],[159836.74,6841879.64],[159967.67,6841893.13],[160015.07,6841889.13],[160081.27,6841872.08],[160101.63,6841837.76],[160146.14,6841794.48],[160144.81,6841772.95],[160134.96,6841761.6],[160138.28,6841693.55],[160120.36,6841631.15],[160053.76,6841539.34],[159973.0,6841500.37],[159971.82,6841493.58],[159990.16,6841479.78],[159988.49,6841464.13],[159804.8,6841321.11],[159743.28,6841262.58],[159588.81,6841191.36],[159454.93,6841105.54],[159319.6,6840979.03],[159290.14,6840962.01],[159221.84,6840806.04],[159175.81,6840612.28],[159133.99,6840544.96],[159107.25,6840479.98],[159094.83,6840413.2],[159053.07,6840328.65],[159052.3,6840297.45],[159005.66,6840253.46],[158989.91,6840168.73],[158945.41,6840067.34],[158937.24,6839977.5],[158940.01,6839950.1],[158954.12,6839926.22],[158953.63,6839905.39],[158936.46,6839860.62],[158931.17,6839796.46],[158872.12,6839673.94],[158866.09,6839629.34],[158923.01,6839582.86],[158930.32,6839562.18],[158902.32,6839537.41],[158860.12,6839521.04],[158790.25,6839540.83],[158686.0,6839610.64],[158638.09,6839680.08],[158541.63,6839724.71],[158507.46,6839758.83],[158462.74,6839825.89],[158347.32,6839921.87],[158272.77,6839959.18],[158222.12,6840022.55],[158193.23,6840073.0],[158196.46,6840183.54],[158137.38,6840262.29],[158113.34,6840370.33],[158116.11,6840386.54],[158129.07,6840386.12],[158128.26,6840408.74],[158086.54,6840475.82],[158083.28,6840519.66],[158107.36,6840553.22],[158149.89,6840551.11],[158175.58,6840577.33],[158202.34,6840574.76],[158220.97,6840584.44],[158290.13,6840572.68],[158289.16,6840607.87],[158270.05,6840614.24],[158233.47,6840653.53],[158199.85,6840669.73],[158134.47,6840673.0],[158083.1,6840663.04],[158044.23,6840669.34],[158002.1,6840710.4],[157933.46,6840754.65],[157932.97,6840799.9],[157923.98,6840812.43],[157922.39,6840839.64],[157939.78,6840849.42],[157928.03,6840873.37],[157961.3,6840902.11],[157990.98,6840896.53],[158007.56,6840946.41],[158024.03,6840958.59],[158021.31,6840984.89],[158030.99,6840996.31],[158040.48,6841039.89],[158049.25,6841154.2],[158034.95,6841156.97],[158021.95,6841176.03],[158004.02,6841182.8],[157984.94,6841236.19],[157938.9,6841268.93],[157897.65,6841313.41],[157855.02,6841388.01],[157853.46,6841421.19],[157869.75,6841487.02],[157905.01,6841569.85],[157949.86,6841596.04],[157992.87,6841572.89],[158016.42,6841587.85],[158032.18,6841573.95],[158048.39,6841590.64],[158075.28,6841582.93],[158085.72,6841595.89],[158130.59,6841600.7],[158165.87,6841574.91],[158188.64,6841529.84],[158217.83,6841514.06],[158240.92,6841489.35],[158239.86,6841456.45],[158213.3,6841430.54],[158211.81,6841403.29],[158222.35,6841374.9],[158207.95,6841315.65],[158158.02,6841268.78],[158159.46,6841178.96],[158142.41,6841132.95],[158147.06,6841121.25],[158169.43,6841112.69],[158218.45,6841072.63],[158216.64,6841063.16],[158184.04,6841043.57],[158155.86,6841039.78],[158158.67,6841033.59],[158273.58,6841022.12],[158310.39,6841002.51],[158357.04,6841005.99],[158372.95,6841046.16],[158467.32,6841110.4],[158478.68,6841150.75],[158473.61,6841165.43],[158445.32,6841168.3],[158391.24,6841144.71],[158334.78,6841141.73],[158312.72,6841174.14],[158321.65,6841222.11],[158458.29,6841417.89],[158499.46,6841437.83],[158568.15,6841432.44],[158572.3,6841443.79],[158472.44,6841508.05],[158394.63,6841569.08],[158309.3,6841617.63],[158216.89,6841616.11],[158188.23,6841639.05],[158094.99,6841649.11],[157960.95,6841714.93],[157892.95,6841901.51],[157840.18,6841987.43],[157803.94,6842030.48],[157792.92,6842087.66],[157795.97,6842130.22],[157827.2,6842178.62],[157837.4,6842227.49],[157870.77,6842241.93],[157937.71,6842233.93],[157939.02,6842243.51],[157857.01,6842317.66],[157828.72,6842359.29],[157796.44,6842377.3],[157769.0,6842410.28],[157756.62,6842464.36],[157733.42,6842517.81],[157729.26,6842592.38],[157717.28,6842625.19],[157727.58,6842673.61],[157768.09,6842698.48],[157817.0,6842692.7],[157866.12,6842666.84],[157923.04,6842604.8]]
    ]
   },
   "properties": {
    "name": "Blåbrean",
    "areaKm2": 3.197,
    "source": "N50 Kartdata, Kartverket, CC BY 4.0"
   }
  },
  {
   "type": "Feature",
   "geometry": {
    "type": "Polygon",
    "coordinates": [
     [[158842.45,6838619.34],[158810.25,6838646.79],[158785.46,6838696.04],[158784.39,6838764.87],[158766.02,6838824.36],[158708.63,6838881.06],[158678.33,6838958.17],[158688.96,6839070.27],[158711.67,6839117.17],[158714.78,6839202.63],[158637.71,6839253.31],[158613.62,6839287.82],[158598.61,6839285.31],[158591.82,6839274.38],[158591.89,6839256.31],[158609.38,6839232.29],[158606.84,6839223.57],[158576.16,6839228.99],[158540.82,6839283.01],[158526.23,6839363.73],[158515.05,6839386.18],[158535.59,6839556.36],[158546.78,6839573.91],[158570.64,6839573.13],[158590.47,6839549.1],[158675.73,6839534.19],[158714.24,6839514.35],[158785.27,6839500.97],[158824.87,6839480.23],[158879.68,6839476.06],[158937.42,6839485.4],[158955.94,6839473.61],[159042.64,6839451.66],[159066.61,6839430.89],[159107.85,6839425.41],[159159.15,6839403.3],[159178.44,6839406.93],[159214.63,6839435.56],[159239.3,6839491.97],[159241.43,6839550.78],[159267.35,6839581.74],[159318.33,6839581.11],[159404.05,6839562.7],[159440.41,6839546.37],[159520.93,6839541.61],[159526.44,6839703.63],[159551.69,6839731.41],[159597.02,6839735.48],[159648.15,6839782.99],[159681.15,6839797.58],[159681.23,6839826.36],[159725.07,6839868.22],[159687.54,6839910.57],[159639.85,6839939.63],[159597.95,6839949.59],[159554.73,6839977.44],[159454.33,6839984.51],[159410.02,6840001.09],[159351.6,6840055.6],[159356.09,6840110.02],[159369.86,6840153.28],[159395.19,6840178.56],[159427.14,6840232.86],[159432.77,6840259.74],[159468.79,6840328.36],[159464.15,6840371.17],[159481.64,6840407.13],[159482.36,6840443.55],[159457.68,6840569.31],[159469.01,6840580.86],[159505.03,6840586.53],[159531.41,6840640.98],[159592.78,6840701.52],[159698.07,6840751.48],[159717.97,6840770.96],[159743.17,6840775.57],[159747.12,6840792.39],[159777.64,6840807.24],[159781.89,6840828.11],[159765.33,6840862.2],[159778.0,6840928.33],[159811.18,6840992.21],[159822.56,6841052.41],[159852.25,6841055.7],[159865.67,6841033.91],[159902.78,6841021.06],[159905.99,6841009.1],[159901.72,6840986.18],[159880.3,6840960.47],[159877.65,6840861.92],[159860.77,6840837.15],[159837.96,6840830.93],[159828.23,6840811.4],[159829.68,6840785.11],[159845.11,6840772.63],[159893.39,6840776.26],[159905.88,6840790.48],[159913.68,6840847.08],[159931.01,6840835.04],[159936.88,6840806.22],[159957.92,6840787.68],[159951.57,6840760.88],[159933.1,6840750.68],[159935.94,6840724.91],[159927.81,6840691.62],[159882.17,6840664.36],[159851.03,6840616.39],[159864.81,6840577.06],[159845.18,6840456.07],[159842.05,6840369.01],[159869.64,6840238.16],[159866.87,6840212.07],[159851.21,6840204.17],[159860.55,6840147.78],[159872.86,6840123.56],[159902.86,6840104.13],[159917.61,6840068.45],[159995.68,6839970.68],[160010.98,6839926.15],[160032.85,6839789.22],[160083.14,6839725.87],[160110.05,6839707.84],[160169.61,6839693.44],[160196.78,6839678.82],[160256.08,6839691.92],[160267.89,6839704.97],[160288.99,6839696.79],[160326.5,6839623.43],[160322.35,6839563.41],[160334.21,6839509.66],[160318.29,6839485.85],[160315.87,6839465.74],[160336.87,6839438.06],[160362.61,6839380.49],[160357.83,6839364.21],[160317.74,6839358.69],[160282.29,6839323.08],[160260.44,6839151.63],[160244.19,6839154.49],[160218.91,6839178.91],[160168.28,6839254.11],[160076.12,6839318.64],[160022.86,6839410.97],[160038.11,6839470.38],[160023.28,6839500.48],[159917.68,6839491.57],[159865.56,6839461.28],[159830.19,6839384.12],[159807.25,6839277.74],[159845.75,6839179.17],[159896.62,6839113.41],[159951.93,6838983.09],[160032.83,6838925.21],[160074.03,6838916.16],[160098.85,6838888.4],[160104.97,6838848.55],[160120.71,6838834.14],[160125.77,6838754.38],[160163.35,6838721.09],[160207.2,6838624.88],[160233.91,6838440.52],[160230.29,6838260.88],[160301.55,6838067.53],[160306.3,6837969.82],[160296.61,6837901.74],[160310.11,6837852.09],[160306.09,6837815.18],[160286.9,6837772.37],[160267.79,6837766.63],[160237.04,6837795.31],[160197.9,6837850.04],[160138.1,6837971.69],[160111.87,6838000.17],[160045.73,6838137.76],[160051.49,6838199.16],[160037.76,6838224.62],[160027.5,6838277.34],[160011.12,6838294.31],[159972.66,6838311.39],[159927.73,6838359.26],[159903.37,6838411.12],[159880.59,6838418.63],[159846.15,6838453.25],[159781.22,6838461.32],[159715.51,6838453.07],[159629.44,6838461.83],[159606.46,6838442.19],[159528.69,6838428.48],[159501.51,6838382.44],[159446.75,6838344.1],[159369.21,6838316.11],[159339.89,6838318.16],[159196.8,6838337.09],[159149.62,6838356.96],[159034.02,6838426.67],[158970.37,6838480.89],[158922.82,6838499.26],[158855.68,6838578.04],[158842.45,6838619.34]],
     [[159186.86,6839106.32],[159216.19,6839045.84],[159250.37,6839003.45],[159274.21,6838997.99],[159329.09,6839012.13],[159357.16,6839036.4],[159411.02,6839041.3],[159445.64,6839053.5],[159483.46,6839082.02],[159482.07,6839105.64],[159467.49,6839128.58],[159446.4,6839136.57],[159394.26,6839132.4],[159368.9,6839142.25],[159299.35,6839149.23],[159229.1,6839123.53],[159191.29,6839124.61],[159186.86,6839106.32]]
    ]
   },
   "properties": {
    "name": null,
    "areaKm2": 2.215,
    "source": "N50 Kartdata, Kartverket, CC BY 4.0"
   }
  },
  {
   "type": "Feature",
   "geometry": {
    "type": "Polygon",
    "coordinates": [
     [[157467.71,6828371.95],[157507.17,6828299.83],[157539.25,6828205.92],[157565.27,6828155.98],[157726.78,6827914.14],[157784.48,6827788.99],[157852.13,6827733.33],[157991.48,6827555.25],[158052.51,6827541.55],[158119.67,6827493.81],[158221.54,6827483.26],[158248.76,6827471.18],[158321.76,6827462.81],[158373.27,6827439.41],[158441.68,6827468.86],[158498.51,6827477.69],[158558.33,6827466.16],[158672.26,6827423.23],[158804.59,6827411.11],[158829.62,6827423.05],[158859.34,6827462.96],[158866.59,6827530.0],[158856.34,6827555.43],[158863.35,6827614.07],[158872.79,6827630.66],[158875.89,6827667.15],[158898.58,6827681.11],[158961.17,6827685.07],[159036.04,6827667.06],[159093.45,6827609.37],[159178.55,6827551.94],[159196.1,6827550.68],[159215.42,6827567.46],[159211.11,6827605.11],[159219.55,6827625.74],[159249.97,6827626.43],[159290.5,6827645.8],[159325.57,6827611.9],[159318.11,6827514.93],[159346.06,6827464.92],[159327.76,6827375.64],[159315.9,6827363.0],[159280.29,6827371.98],[159225.8,6827339.75],[159171.61,6827286.47],[159150.64,6827249.41],[159139.36,6827250.34],[159117.84,6827272.81],[159062.67,6827279.14],[159045.57,6827289.93],[159001.36,6827274.16],[158966.47,6827231.72],[158953.78,6827140.79],[158922.84,6827139.92],[158871.58,6827182.86],[158826.14,6827185.34],[158777.17,6827160.85],[158769.45,6827086.35],[158792.02,6827040.51],[158846.31,6826972.69],[158838.18,6826947.3],[158739.8,6826915.99],[158668.5,6826920.94],[158624.31,6826881.9],[158598.46,6826880.0],[158556.05,6826880.0],[158538.51,6826920.35],[158558.65,6826980.74],[158547.67,6826997.89],[158537.64,6826999.82],[158496.28,6826963.41],[158466.38,6826960.31],[158447.33,6826943.98],[158444.1,6826880.0],[157214.64,6826880.0],[157216.42,6826900.66],[157244.12,6826915.19],[157266.49,6826947.0],[157259.08,6826961.99],[157236.2,6826970.18],[157233.84,6827005.33],[157264.91,6827043.44],[157277.37,6827072.48],[157294.18,6827081.44],[157320.76,6827077.85],[157363.41,6827106.2],[157421.42,6827127.54],[157431.04,6827173.46],[157409.7,6827219.77],[157403.39,6827293.34],[157364.65,6827338.93],[157361.21,6827369.74],[157326.51,6827440.81],[157287.79,6827478.03],[157295.03,6827519.95],[157289.68,6827542.51],[157295.04,6827615.67],[157288.95,6827635.09],[157196.32,6827729.45],[157161.48,6827782.84],[157108.1,6827839.05],[157109.44,6827949.16],[157123.57,6827978.25],[157085.94,6828016.18],[157084.14,6828048.62],[157169.4,6828158.47],[157173.69,6828213.72],[157144.44,6828290.93],[157150.66,6828433.97],[157167.65,6828492.05],[157195.45,6828532.92],[157229.58,6828554.25],[157290.07,6828547.02],[157341.66,6828505.4],[157467.71,6828371.95]]
    ]
   },
   "properties": {
    "name": null,
    "areaKm2": 1.568,
    "source": "N50 Kartdata, Kartverket, CC BY 4.0"
   }
  },
  {
   "type": "Feature",
   "geometry": {
    "type": "Polygon",
    "coordinates": [
     [[162618.62,6829503.35],[162582.49,6829465.5],[162546.46,6829461.76],[162520.44,6829449.78],[162521.03,6829430.69],[162578.27,6829411.62],[162720.4,6829387.66],[162846.1,6829324.77],[162942.93,6829291.9],[162998.99,6829281.31],[163029.19,6829264.14],[163185.45,6829239.12],[163255.29,6829216.44],[163304.38,6829166.65],[163502.38,6829031.11],[163565.44,6828976.3],[163611.2,6828953.86],[163660.73,6828910.64],[163681.72,6828899.93],[163736.11,6828891.83],[163746.04,6828875.95],[163736.18,6828833.17],[163763.96,6828791.58],[163794.92,6828716.77],[163756.4,6828695.96],[163687.9,6828712.08],[163623.93,6828708.72],[163534.66,6828659.68],[163493.97,6828621.9],[163463.33,6828609.89],[163450.26,6828535.02],[163452.04,6828469.43],[163442.51,6828444.76],[163374.98,6828343.72],[163271.99,6828269.13],[163253.84,6828266.9],[163096.81,6828385.25],[162976.11,6828513.79],[162815.54,6828591.72],[162730.62,6828652.82],[162665.51,6828716.43],[162578.59,6828726.99],[162545.79,6828677.09],[162520.57,6828675.82],[162503.14,6828688.7],[162471.08,6828687.9],[162440.85,6828664.43],[162435.32,6828643.32],[162421.53,6828642.85],[162411.82,6828686.41],[162421.1,6828725.49],[162402.91,6828761.87],[162377.01,6828774.19],[162365.71,6828790.86],[162319.07,6828783.14],[162217.04,6828785.76],[162149.76,6828812.35],[162086.39,6828850.9],[162059.02,6828890.72],[162051.16,6828891.1],[162037.11,6828874.01],[162029.45,6828876.07],[162032.47,6828931.27],[162018.59,6828963.13],[162022.72,6829023.85],[162010.74,6829055.26],[162026.82,6829135.81],[162047.84,6829165.64],[162075.82,6829187.85],[162087.53,6829222.81],[162120.8,6829262.77],[162141.6,6829313.05],[162217.04,6829392.21],[162261.94,6829460.48],[162325.7,6829499.32],[162356.94,6829505.42],[162390.01,6829527.5],[162451.79,6829549.62],[162515.71,6829544.3],[162546.14,6829556.56],[162593.63,6829551.13],[162618.54,6829516.48],[162618.62,6829503.35]]
    ]
   },
   "properties": {
    "name": "Steinflybrean",
    "areaKm2": 1.141,
    "source": "N50 Kartdata, Kartverket, CC BY 4.0"
   }
  },
  {
   "type": "Feature",
   "geometry": {
    "type": "Polygon",
    "coordinates": [
     [[161045.03,6830677.23],[161058.16,6830649.51],[161074.52,6830648.76],[161119.22,6830669.58],[161205.16,6830637.98],[161288.49,6830567.22],[161412.76,6830431.19],[161427.25,6830386.94],[161499.91,6830277.0],[161563.82,6830133.68],[161611.44,6830074.92],[161639.4,6830020.49],[161641.75,6829990.55],[161622.17,6829983.22],[161550.15,6830064.31],[161524.21,6830069.87],[161513.09,6830057.61],[161515.24,6830038.92],[161535.95,6830007.51],[161529.63,6829955.61],[161532.85,6829880.42],[161570.29,6829776.87],[161571.71,6829728.72],[161584.68,6829696.52],[161586.36,6829619.97],[161569.21,6829604.36],[161565.19,6829556.28],[161590.7,6829507.93],[161638.15,6829482.35],[161653.95,6829409.03],[161705.37,6829345.83],[161697.78,6829304.13],[161725.05,6829263.16],[161713.65,6829196.28],[161677.85,6829128.46],[161643.13,6829092.09],[161559.96,6829062.37],[161530.68,6829019.89],[161517.85,6829013.77],[161477.53,6829017.25],[161440.19,6829030.49],[161352.59,6829024.79],[161267.24,6828945.48],[161234.11,6828929.6],[161211.15,6828939.13],[161191.45,6829008.49],[161173.25,6829030.05],[161188.89,6829050.48],[161188.77,6829076.64],[161158.45,6829086.67],[161130.38,6829075.96],[161110.91,6829077.9],[161109.58,6829103.3],[161082.42,6829142.28],[161073.17,6829201.57],[161089.19,6829206.69],[161094.71,6829218.05],[161059.72,6829282.4],[161053.14,6829403.88],[161027.37,6829471.69],[160975.48,6829476.93],[160949.95,6829464.37],[160942.08,6829433.84],[160972.0,6829426.13],[160970.43,6829385.08],[160946.77,6829368.45],[160932.32,6829367.32],[160917.65,6829374.09],[160909.12,6829389.58],[160930.2,6829406.07],[160930.96,6829414.71],[160907.46,6829408.03],[160856.53,6829417.98],[160786.1,6829456.04],[160762.9,6829486.59],[160761.29,6829582.37],[160783.18,6829685.56],[160797.46,6829691.34],[160834.32,6829647.95],[160849.14,6829654.06],[160853.0,6829680.24],[160842.83,6829708.37],[160787.81,6829785.06],[160781.44,6829826.61],[160732.4,6829886.59],[160728.27,6829936.23],[160743.75,6829946.57],[160786.94,6829944.88],[160802.47,6829985.95],[160872.26,6829986.95],[160906.8,6830003.86],[160908.71,6830011.73],[160895.09,6830035.4],[160808.17,6830026.65],[160775.51,6830062.66],[160783.72,6830101.49],[160831.2,6830148.76],[160837.36,6830168.65],[160829.35,6830193.33],[160788.1,6830224.88],[160786.81,6830238.99],[160816.04,6830268.33],[160820.97,6830295.41],[160842.03,6830293.47],[160874.73,6830264.34],[160897.3,6830267.4],[160907.19,6830280.8],[160912.65,6830333.49],[160920.64,6830339.94],[160940.04,6830332.09],[160951.02,6830310.44],[160943.66,6830222.55],[160976.32,6830193.54],[161001.86,6830198.41],[161027.88,6830276.38],[160999.77,6830314.16],[160986.0,6830370.52],[160968.61,6830398.66],[160962.55,6830460.07],[160953.6,6830481.32],[160855.63,6830513.7],[160831.95,6830577.1],[160756.34,6830664.4],[160754.1,6830689.15],[160760.3,6830706.38],[160801.25,6830749.35],[160816.81,6830746.19],[160828.96,6830733.21],[160839.52,6830688.95],[160860.1,6830658.78],[160888.94,6830657.27],[160915.58,6830667.68],[160949.25,6830650.61],[160974.67,6830651.88],[160993.34,6830750.68],[161009.31,6830751.14],[161029.88,6830738.58],[161045.48,6830707.99],[161045.03,6830677.23]],
     [[161098.13,6830068.89],[161122.96,6830052.64],[161136.36,6830096.43],[161132.98,6830147.4],[161107.59,6830201.72],[161076.38,6830216.96],[161070.05,6830201.99],[161098.13,6830068.89]]
    ]
   },
   "properties": {
    "name": null,
    "areaKm2": 1.076,
    "source": "N50 Kartdata, Kartverket, CC BY 4.0"
   }
  },
  {
   "type": "Feature",
   "geometry": {
    "type": "Polygon",
    "coordinates": [
     [[158589.18,6843244.96],[158616.07,6843225.45],[158638.9,6843220.52],[158742.87,6843246.16],[158760.65,6843260.26],[158760.63,6843264.0],[159076.13,6843264.0],[159080.55,6843258.86],[159129.17,6843245.59],[159143.29,6843229.29],[159161.09,6843184.11],[159226.04,6843103.29],[159246.26,6843088.13],[159276.0,6843084.49],[159324.88,6843096.7],[159338.73,6843111.92],[159339.91,6843135.67],[159322.88,6843158.72],[159334.8,6843208.43],[159303.73,6843262.73],[159303.92,6843264.0],[159398.07,6843264.0],[159428.58,6843216.16],[159441.78,6843134.27],[159500.13,6843119.15],[159555.64,6843063.29],[159630.89,6843003.47],[159661.28,6842988.83],[159652.83,6842958.39],[159600.49,6842962.94],[159556.28,6842976.66],[159488.84,6843013.91],[159464.19,6843015.58],[159456.0,6843008.55],[159454.46,6842991.92],[159480.8,6842983.8],[159508.39,6842961.53],[159566.58,6842957.78],[159585.37,6842946.18],[159606.26,6842917.01],[159609.99,6842851.41],[159566.56,6842816.74],[159559.65,6842800.88],[159547.62,6842660.48],[159528.88,6842650.77],[159513.49,6842654.75],[159497.66,6842680.46],[159466.81,6842705.91],[159462.87,6842741.53],[159477.43,6842879.49],[159401.52,6842955.98],[159405.54,6842994.82],[159390.53,6843025.22],[159357.06,6843035.42],[159295.36,6843020.84],[159278.32,6843007.32],[159271.97,6842988.65],[159236.8,6842972.58],[159197.25,6842962.68],[159132.61,6842962.82],[159076.76,6842934.3],[159027.26,6842886.03],[159023.95,6842832.88],[159045.0,6842805.76],[159067.49,6842796.76],[159134.28,6842795.41],[159155.66,6842786.39],[159156.28,6842777.1],[159133.13,6842746.96],[159091.73,6842747.3],[159045.39,6842725.2],[158962.25,6842677.33],[158882.48,6842619.65],[158788.3,6842632.91],[158734.78,6842681.62],[158736.34,6842697.74],[158793.57,6842729.93],[158803.4,6842755.78],[158800.86,6842786.3],[158757.17,6842823.57],[158684.61,6842836.81],[158679.5,6842862.26],[158632.04,6842872.61],[158536.26,6842820.67],[158379.42,6842929.82],[158332.15,6842943.39],[158295.37,6843031.23],[158291.21,6843060.11],[158247.48,6843082.0],[158233.57,6843115.31],[158239.6,6843155.42],[158268.97,6843223.18],[158251.29,6843244.66],[158204.1,6843246.44],[158153.39,6843226.92],[158125.41,6843197.98],[158041.8,6843145.42],[158017.78,6843121.89],[158000.47,6843067.14],[158022.87,6843043.61],[158021.21,6843030.75],[158003.62,6842998.42],[157990.64,6842947.64],[157975.28,6842926.5],[157906.56,6842907.43],[157821.51,6842861.49],[157704.56,6842881.45],[157611.52,6842883.57],[157547.11,6842940.54],[157430.59,6843073.98],[157422.15,6843119.27],[157362.9,6843185.98],[157344.58,6843229.59],[157294.03,6843264.0],[158579.44,6843264.0],[158589.18,6843244.96]]
    ]
   },
   "properties": {
    "name": null,
    "areaKm2": 0.723,
    "source": "N50 Kartdata, Kartverket, CC BY 4.0"
   }
  },
  {
   "type": "Feature",
   "geometry": {
    "type": "Polygon",
    "coordinates": [
     [[165120.29,6837895.22],[165139.38,6837875.07],[165137.29,6837841.03],[165168.95,6837820.69],[165173.73,6837786.91],[165145.02,6837780.84],[165137.8,6837721.09],[165162.73,6837692.0],[165184.14,6837681.14],[165197.71,6837637.9],[165209.38,6837624.41],[165236.89,6837620.09],[165281.85,6837629.1],[165335.21,6837615.3],[165361.14,6837619.71],[165390.4,6837600.17],[165450.08,6837579.12],[165655.24,6837548.19],[165706.3,6837527.01],[165749.72,6837495.73],[165765.88,6837467.78],[165798.29,6837455.36],[165827.55,6837429.27],[165849.32,6837386.36],[165839.9,6837254.9],[165739.36,6837143.25],[165724.78,6837031.7],[165731.25,6837002.72],[165722.48,6836987.53],[165682.28,6836977.12],[165592.26,6836977.6],[165426.74,6836935.25],[165264.16,6836911.61],[165106.38,6836926.69],[165078.87,6836941.96],[165021.13,6836999.43],[164919.23,6837050.8],[164833.27,6837146.65],[164834.32,6837196.87],[164814.83,6837233.02],[164829.26,6837311.48],[164840.18,6837329.79],[164864.34,6837343.18],[164871.01,6837381.59],[164940.4,6837497.85],[164963.04,6837515.1],[165023.06,6837536.55],[165030.02,6837556.23],[165061.65,6837592.77],[165068.77,6837639.67],[165096.67,6837675.93],[165099.54,6837695.89],[165042.86,6837784.34],[165048.47,6837827.23],[165062.4,6837847.31],[165115.67,6837850.22],[165079.49,6837880.54],[165075.94,6837965.47],[165125.91,6837962.38],[165120.29,6837895.22]]
    ]
   },
   "properties": {
    "name": "Besshøbrean",
    "areaKm2": 0.589,
    "source": "N50 Kartdata, Kartverket, CC BY 4.0"
   }
  },
  {
   "type": "Feature",
   "geometry": {
    "type": "Polygon",
    "coordinates": [
     [[162478.93,6830896.72],[162477.28,6830869.05],[162522.7,6830815.52],[162562.06,6830684.64],[162662.96,6830649.09],[162681.99,6830635.42],[162680.67,6830608.0],[162702.39,6830579.79],[162713.58,6830580.55],[162719.26,6830594.96],[162728.64,6830595.38],[162766.29,6830562.84],[162846.63,6830445.91],[162953.01,6830336.86],[162989.8,6830275.32],[163008.98,6830270.57],[163021.77,6830256.38],[163119.56,6830070.72],[163126.59,6830027.93],[163154.59,6829976.96],[163162.06,6829944.21],[163186.49,6829920.36],[163186.56,6829860.45],[163153.41,6829800.65],[163111.47,6829782.95],[163006.92,6829715.42],[162950.86,6829719.54],[162879.41,6829751.31],[162840.57,6829754.52],[162804.82,6829744.48],[162777.07,6829774.87],[162778.33,6829835.14],[162746.26,6829884.39],[162709.42,6829917.91],[162665.37,6829942.03],[162639.89,6829968.63],[162627.69,6829964.64],[162626.59,6829930.37],[162550.6,6829937.99],[162539.5,6829957.44],[162529.2,6830010.12],[162538.33,6830044.01],[162483.57,6830178.14],[162363.24,6830280.49],[162351.63,6830378.87],[162310.25,6830446.25],[162268.14,6830541.23],[162246.89,6830565.05],[162230.37,6830621.13],[162241.27,6830702.37],[162236.46,6830791.7],[162239.59,6830800.75],[162304.08,6830843.89],[162314.9,6830885.16],[162343.57,6830899.73],[162395.96,6830976.59],[162428.92,6830972.76],[162456.93,6830946.35],[162478.93,6830896.72]]
    ]
   },
   "properties": {
    "name": null,
    "areaKm2": 0.556,
    "source": "N50 Kartdata, Kartverket, CC BY 4.0"
   }
  },
  {
   "type": "Feature",
   "geometry": {
    "type": "Polygon",
    "coordinates": [
     [[159185.77,6828672.36],[159236.0,6828666.6],[159291.6,6828640.39],[159346.62,6828582.43],[159412.99,6828578.24],[159420.22,6828545.8],[159530.54,6828435.5],[159572.39,6828422.88],[159579.96,6828414.0],[159578.82,6828402.25],[159537.06,6828371.96],[159520.18,6828342.86],[159510.07,6828284.57],[159496.69,6828264.03],[159491.37,6828200.64],[159447.9,6828151.0],[159443.41,6828114.68],[159386.97,6828076.86],[159355.31,6828066.38],[159339.53,6828034.74],[159225.04,6828047.84],[159215.88,6828067.01],[159253.02,6828083.5],[159255.09,6828093.99],[159250.0,6828115.96],[159219.51,6828142.87],[159106.98,6828147.54],[159104.26,6828133.34],[159126.09,6828106.43],[159125.79,6828095.51],[159113.25,6828079.25],[159096.74,6828082.55],[159073.73,6828113.75],[159062.02,6828163.41],[159073.93,6828199.23],[159161.41,6828268.81],[159181.56,6828259.66],[159215.79,6828217.6],[159235.05,6828218.11],[159239.52,6828256.38],[159206.32,6828335.26],[159162.32,6828374.65],[159129.94,6828425.95],[159108.99,6828438.84],[159047.87,6828454.49],[158946.04,6828500.13],[158861.17,6828495.88],[158793.09,6828513.41],[158760.27,6828547.38],[158758.14,6828565.55],[158784.46,6828570.49],[158827.74,6828597.68],[158850.86,6828630.19],[158854.41,6828659.7],[158797.07,6828702.49],[158735.48,6828789.6],[158713.53,6828806.12],[158657.55,6828809.85],[158619.81,6828849.16],[158634.38,6828863.39],[158665.64,6828850.16],[158707.56,6828849.61],[158746.72,6828886.32],[158776.08,6828928.98],[158842.65,6828944.16],[158866.82,6828981.57],[158887.85,6828990.85],[158907.96,6828988.74],[158951.9,6828950.16],[159185.77,6828672.36]]
    ]
   },
   "properties": {
    "name": "Skarvflybrean",
    "areaKm2": 0.341,
    "source": "N50 Kartdata, Kartverket, CC BY 4.0"
   }
  },
  {
   "type": "Feature",
   "geometry": {
    "type": "Polygon",
    "coordinates": [
     [[156989.22,6842792.86],[157021.55,6842735.28],[157018.36,6842697.61],[156940.4,6842627.9],[156894.21,6842612.56],[156887.84,6842598.69],[156906.92,6842577.22],[156904.69,6842537.18],[156941.24,6842516.58],[157066.15,6842548.62],[157090.03,6842539.94],[157123.33,6842499.72],[157132.51,6842461.34],[157131.16,6842407.88],[157082.48,6842322.34],[157067.12,6842239.34],[157064.97,6842171.08],[157109.51,6842144.85],[157140.57,6842112.57],[157182.62,6842028.04],[157311.91,6841972.12],[157328.62,6841939.86],[157363.01,6841918.96],[157361.86,6841881.89],[157329.01,6841869.66],[157337.15,6841820.65],[157299.61,6841768.97],[157281.15,6841756.51],[157269.9,6841722.13],[157252.24,6841708.04],[157131.97,6841719.42],[157091.53,6841701.15],[157036.49,6841705.9],[156998.46,6841734.67],[156985.74,6841768.53],[157037.86,6841788.0],[157073.98,6841818.46],[157074.56,6841831.14],[157023.38,6841839.19],[156977.97,6841861.1],[156926.46,6841923.43],[156925.89,6841955.07],[156910.0,6841977.69],[156830.61,6841987.91],[156783.13,6841976.68],[156792.07,6842025.71],[156834.11,6842049.7],[156849.32,6842073.39],[156843.23,6842120.07],[156856.31,6842125.7],[156856.57,6842135.25],[156831.24,6842157.54],[156857.93,6842178.98],[156857.68,6842185.34],[156820.57,6842200.26],[156824.61,6842226.51],[156817.4,6842257.17],[156825.09,6842316.71],[156811.54,6842351.18],[156776.44,6842387.31],[156680.39,6842408.46],[156661.31,6842394.06],[156634.14,6842348.37],[156609.86,6842346.26],[156593.13,6842395.45],[156571.67,6842413.84],[156551.96,6842458.99],[156521.98,6842419.75],[156494.6,6842413.82],[156465.13,6842454.12],[156435.23,6842476.5],[156441.49,6842505.7],[156459.67,6842519.14],[156516.74,6842511.84],[156527.87,6842520.17],[156550.53,6842505.06],[156577.37,6842531.06],[156594.35,6842530.79],[156609.15,6842522.56],[156616.04,6842496.05],[156658.82,6842467.62],[156685.02,6842516.21],[156710.2,6842514.84],[156718.43,6842500.41],[156711.81,6842456.23],[156716.62,6842439.34],[156744.07,6842467.71],[156751.01,6842495.6],[156811.36,6842490.91],[156812.4,6842445.24],[156850.8,6842433.75],[156862.7,6842463.24],[156875.77,6842473.44],[156888.25,6842555.96],[156864.97,6842584.89],[156822.04,6842574.72],[156796.94,6842627.2],[156855.93,6842662.56],[156843.0,6842719.11],[156815.81,6842735.66],[156834.55,6842779.87],[156756.24,6842783.85],[156744.23,6842790.47],[156744.18,6842806.42],[156800.25,6842800.87],[156817.62,6842820.44],[156840.55,6842820.36],[156876.7,6842846.62],[156931.58,6842842.33],[156966.41,6842879.83],[157000.9,6842844.2],[156989.22,6842792.86]]
    ]
   },
   "properties": {
    "name": null,
    "areaKm2": 0.33,
    "source": "N50 Kartdata, Kartverket, CC BY 4.0"
   }
  },
  {
   "type": "Feature",
   "geometry": {
    "type": "Polygon",
    "coordinates": [
     [[156894.93,6827980.05],[156913.76,6827944.93],[156959.39,6827895.45],[156959.01,6827814.37],[156991.93,6827721.28],[157046.38,6827690.87],[157085.84,6827681.7],[157104.71,6827637.26],[157139.51,6827600.91],[157136.39,6827564.2],[157096.5,6827513.87],[157060.32,6827487.69],[157031.62,6827454.08],[157011.33,6827444.32],[157011.54,6827419.25],[157022.18,6827406.62],[157039.73,6827404.97],[157082.35,6827423.15],[157094.59,6827421.33],[157130.44,6827347.9],[157123.58,6827295.54],[157146.93,6827273.39],[157174.76,6827278.43],[157189.23,6827270.78],[157186.46,6827249.54],[157165.25,6827210.16],[157133.23,6827177.18],[156957.08,6827132.52],[156869.55,6827142.98],[156831.48,6827176.54],[156817.5,6827213.3],[156830.63,6827265.17],[156879.87,6827287.22],[156928.85,6827286.87],[156974.75,6827339.35],[156978.43,6827369.15],[156948.12,6827390.3],[156859.56,6827391.0],[156796.09,6827421.3],[156768.26,6827447.53],[156704.89,6827561.81],[156636.39,6827634.7],[156626.69,6827636.48],[156607.81,6827611.03],[156560.23,6827603.21],[156532.17,6827632.72],[156483.89,6827661.52],[156435.64,6827728.27],[156429.07,6827783.94],[156432.06,6827799.09],[156442.31,6827798.68],[156470.86,6827764.73],[156529.22,6827750.1],[156529.65,6827766.77],[156474.36,6827808.2],[156442.26,6827862.14],[156451.19,6827893.27],[156497.96,6827908.39],[156535.28,6827947.02],[156547.28,6827951.26],[156627.0,6827940.18],[156681.41,6827960.84],[156753.3,6827958.08],[156761.08,6827967.28],[156763.05,6828016.7],[156846.63,6828078.17],[156890.38,6828078.85],[156905.82,6828056.9],[156894.93,6827980.05]]
    ]
   },
   "properties": {
    "name": null,
    "areaKm2": 0.329,
    "source": "N50 Kartdata, Kartverket, CC BY 4.0"
   }
  },
  {
   "type": "Feature",
   "geometry": {
    "type": "Polygon",
    "coordinates": [
     [[155954.79,6841833.95],[155982.17,6841866.87],[155995.52,6841905.4],[156039.11,6841977.52],[156080.71,6842010.62],[156119.35,6842006.1],[156131.09,6841988.11],[156117.95,6841811.7],[156144.52,6841629.5],[156157.98,6841623.2],[156168.64,6841639.25],[156147.18,6841743.69],[156149.4,6841830.25],[156141.91,6841890.95],[156150.5,6841987.06],[156181.27,6841977.25],[156296.52,6841966.46],[156332.74,6841904.62],[156381.73,6841902.78],[156428.66,6841838.94],[156429.75,6841789.82],[156401.52,6841744.99],[156391.42,6841700.41],[156368.16,6841693.45],[156352.13,6841718.97],[156336.65,6841719.44],[156325.52,6841709.24],[156324.89,6841695.84],[156341.62,6841671.63],[156330.7,6841623.88],[156304.51,6841594.17],[156312.37,6841561.03],[156269.23,6841524.99],[156249.56,6841517.91],[156242.3,6841494.46],[156229.34,6841491.3],[156200.8,6841502.21],[156180.71,6841534.31],[156173.43,6841562.76],[156166.22,6841564.34],[156160.81,6841494.2],[156169.51,6841460.69],[156167.15,6841388.72],[156176.21,6841352.08],[156168.46,6841250.0],[156177.8,6841191.77],[156168.24,6841126.82],[156117.78,6841101.12],[156096.66,6841072.11],[156010.04,6841046.8],[155940.97,6841015.02],[155912.92,6841016.61],[155904.0,6841019.91],[155904.0,6841805.13],[155954.79,6841833.95]],
     [[156235.97,6841535.03],[156228.8,6841541.01],[156198.75,6841536.06],[156214.8,6841517.52],[156232.97,6841519.01],[156235.97,6841535.03]]
    ]
   },
   "properties": {
    "name": null,
    "areaKm2": 0.309,
    "source": "N50 Kartdata, Kartverket, CC BY 4.0"
   }
  },
  {
   "type": "Feature",
   "geometry": {
    "type": "Polygon",
    "coordinates": [
     [[164163.29,6829972.86],[164189.91,6829959.36],[164204.52,6829942.12],[164202.02,6829914.29],[164213.99,6829886.3],[164200.77,6829829.2],[164132.49,6829736.44],[164112.98,6829677.69],[164065.29,6829597.42],[164053.28,6829550.93],[164009.44,6829508.35],[163927.71,6829450.46],[163878.78,6829427.8],[163868.0,6829400.13],[163831.03,6829371.84],[163785.54,6829353.54],[163739.03,6829353.34],[163654.73,6829381.03],[163613.12,6829417.67],[163595.86,6829419.4],[163555.88,6829403.76],[163476.79,6829490.65],[163415.57,6829535.79],[163378.8,6829594.55],[163368.54,6829626.34],[163368.81,6829697.74],[163387.0,6829718.9],[163475.21,6829763.18],[163517.81,6829768.57],[163582.87,6829803.99],[163619.57,6829802.3],[163629.06,6829788.36],[163619.12,6829767.78],[163601.67,6829754.0],[163565.49,6829746.56],[163553.5,6829736.03],[163552.26,6829722.93],[163624.23,6829705.25],[163665.03,6829663.94],[163685.61,6829657.95],[163734.47,6829680.66],[163734.86,6829700.05],[163710.32,6829714.77],[163701.61,6829729.17],[163705.28,6829751.61],[163732.59,6829790.33],[163785.32,6829803.94],[163820.73,6829786.14],[163863.6,6829807.71],[163918.74,6829887.44],[164061.32,6830012.18],[164097.47,6830016.86],[164156.12,6829999.98],[164163.29,6829972.86]]
    ]
   },
   "properties": {
    "name": null,
    "areaKm2": 0.288,
    "source": "N50 Kartdata, Kartverket, CC BY 4.0"
   }
  },
  {
   "type": "Feature",
   "geometry": {
    "type": "Polygon",
    "coordinates": [
     [[159039.29,6838210.34],[159082.28,6838180.44],[159081.34,6838158.88],[159032.3,6838077.75],[159008.48,6838055.99],[159003.18,6838020.63],[159034.48,6837984.37],[159039.64,6837961.49],[159098.32,6837932.23],[159096.9,6837920.94],[159067.63,6837900.04],[159113.64,6837847.42],[159126.15,6837821.55],[159136.98,6837764.09],[159131.57,6837688.37],[159125.32,6837683.76],[159112.16,6837695.86],[159100.4,6837726.68],[159082.48,6837737.37],[159054.53,6837743.16],[159036.42,6837734.72],[159028.68,6837718.68],[159038.16,6837696.3],[159032.24,6837671.36],[159008.57,6837660.93],[158981.41,6837664.93],[158974.89,6837631.28],[158956.45,6837619.12],[158934.1,6837624.2],[158918.37,6837608.87],[158934.78,6837525.11],[158895.52,6837535.97],[158865.37,6837523.2],[158833.29,6837521.71],[158811.48,6837568.43],[158811.0,6837597.11],[158783.2,6837650.37],[158767.93,6837652.77],[158752.82,6837603.55],[158706.84,6837606.3],[158683.2,6837644.76],[158628.53,6837703.47],[158621.95,6837725.45],[158634.31,6837771.65],[158607.41,6837811.05],[158612.43,6837839.43],[158658.69,6837878.39],[158663.4,6837912.71],[158653.76,6837938.83],[158656.14,6837957.07],[158720.66,6837981.37],[158725.58,6838047.75],[158837.27,6838160.57],[158849.21,6838220.22],[158892.02,6838224.83],[158942.0,6838210.24],[158958.57,6838234.46],[159011.17,6838255.34],[159032.38,6838249.73],[159044.01,6838228.75],[159039.29,6838210.34]]
    ]
   },
   "properties": {
    "name": null,
    "areaKm2": 0.23,
    "source": "N50 Kartdata, Kartverket, CC BY 4.0"
   }
  },
  {
   "type": "Feature",
   "geometry": {
    "type": "Polygon",
    "coordinates": [
     [[161649.93,6839867.54],[161699.4,6839859.0],[161582.58,6839787.92],[161488.93,6839764.4],[161422.16,6839736.26],[161359.63,6839680.33],[161319.52,6839619.84],[161315.75,6839588.05],[161334.38,6839545.53],[161354.28,6839517.79],[161380.19,6839500.86],[161390.12,6839464.01],[161433.11,6839416.82],[161427.67,6839397.44],[161323.04,6839341.86],[161303.61,6839344.44],[161296.61,6839366.48],[161270.35,6839371.4],[161189.94,6839341.84],[161120.78,6839342.56],[161042.52,6839385.63],[160995.99,6839424.35],[161016.81,6839464.8],[161016.31,6839482.77],[161005.55,6839493.78],[160946.24,6839500.9],[160946.49,6839521.21],[160933.75,6839525.28],[160881.8,6839504.76],[160884.73,6839532.53],[160903.81,6839562.42],[160904.28,6839582.78],[160864.3,6839603.19],[160854.67,6839620.7],[160856.21,6839666.07],[160844.11,6839697.83],[160828.45,6839719.22],[160797.22,6839740.41],[160805.26,6839754.69],[160862.3,6839772.38],[160866.03,6839733.7],[160922.25,6839723.57],[160970.94,6839732.21],[161015.07,6839685.28],[161036.29,6839682.3],[161076.14,6839746.86],[161110.04,6839765.87],[161217.15,6839854.39],[161267.11,6839877.9],[161364.84,6839886.64],[161589.55,6839865.73],[161649.93,6839867.54]]
    ]
   },
   "properties": {
    "name": null,
    "areaKm2": 0.226,
    "source": "N50 Kartdata, Kartverket, CC BY 4.0"
   }
  },
  {
   "type": "Feature",
   "geometry": {
    "type": "Polygon",
    "coordinates": [
     [[159773.57,6828203.3],[159785.92,6828193.84],[159791.77,6828145.91],[159865.19,6828119.33],[159898.51,6828098.02],[159914.53,6828018.46],[159928.28,6827987.7],[159962.63,6827958.01],[159975.69,6827918.81],[160034.92,6827867.53],[160044.32,6827846.12],[160024.0,6827730.62],[160008.65,6827693.08],[159945.83,6827601.03],[159927.7,6827585.87],[159915.97,6827559.27],[159889.22,6827532.69],[159868.29,6827524.38],[159848.78,6827498.8],[159743.92,6827433.55],[159673.19,6827439.22],[159669.11,6827449.53],[159683.85,6827512.82],[159669.59,6827540.09],[159671.99,6827562.7],[159694.39,6827623.59],[159718.64,6827659.2],[159720.5,6827677.62],[159679.6,6827858.37],[159650.52,6827892.91],[159639.15,6827923.76],[159564.22,6827981.09],[159548.86,6828006.15],[159569.68,6828147.76],[159600.01,6828193.96],[159628.73,6828210.85],[159663.77,6828217.71],[159773.57,6828203.3]]
    ]
   },
   "properties": {
    "name": null,
    "areaKm2": 0.222,
    "source": "N50 Kartdata, Kartverket, CC BY 4.0"
   }
  },
  {
   "type": "Feature",
   "geometry": {
    "type": "Polygon",
    "coordinates": [
     [[161275.07,6841099.02],[161300.66,6841073.53],[161408.72,6841058.12],[161425.74,6841098.99],[161453.91,6841098.95],[161464.27,6841053.19],[161446.24,6841005.3],[161465.08,6840996.43],[161483.26,6840953.11],[161529.02,6840885.54],[161606.94,6840852.35],[161613.85,6840861.76],[161612.07,6840943.29],[161625.69,6840958.15],[161631.33,6841000.11],[161654.44,6841031.67],[161667.43,6841030.53],[161672.12,6841021.77],[161668.95,6840926.38],[161645.92,6840892.38],[161625.41,6840879.68],[161625.45,6840866.1],[161637.22,6840856.84],[161636.7,6840833.81],[161606.35,6840821.44],[161605.74,6840802.02],[161624.33,6840768.17],[161610.51,6840725.08],[161545.68,6840690.12],[161505.55,6840679.97],[161509.02,6840651.58],[161430.77,6840598.05],[161422.57,6840572.56],[161409.26,6840563.26],[161385.64,6840565.05],[161349.65,6840585.16],[161296.95,6840592.84],[161245.99,6840585.19],[161177.82,6840551.97],[161110.61,6840631.82],[161113.12,6840648.12],[161129.4,6840649.16],[161150.48,6840738.96],[161172.53,6840764.3],[161167.32,6840784.5],[161115.56,6840837.37],[161131.3,6840879.27],[161168.07,6840880.62],[161177.85,6840929.96],[161169.3,6840951.16],[161183.05,6840968.95],[161181.19,6840998.47],[161197.31,6841023.44],[161177.4,6841082.23],[161177.77,6841108.83],[161189.09,6841133.86],[161221.46,6841140.39],[161239.12,6841127.82],[161242.84,6841108.78],[161275.07,6841099.02]]
    ]
   },
   "properties": {
    "name": null,
    "areaKm2": 0.196,
    "source": "N50 Kartdata, Kartverket, CC BY 4.0"
   }
  },
  {
   "type": "Feature",
   "geometry": {
    "type": "Polygon",
    "coordinates": [
     [[160458.01,6840221.07],[160473.23,6840209.99],[160522.24,6840212.0],[160571.22,6840201.8],[160557.27,6840176.64],[160609.49,6840155.69],[160688.65,6840104.6],[160694.31,6840096.22],[160688.21,6840084.83],[160731.03,6840068.88],[160781.66,6840024.21],[160721.91,6839995.2],[160636.21,6839987.18],[160569.96,6839924.81],[160570.47,6839867.14],[160578.61,6839852.41],[160600.51,6839851.92],[160649.23,6839877.13],[160674.47,6839878.29],[160658.83,6839832.22],[160656.09,6839795.93],[160672.77,6839783.07],[160678.3,6839754.32],[160692.83,6839736.84],[160684.9,6839724.89],[160581.54,6839659.79],[160549.09,6839662.4],[160488.62,6839684.58],[160471.54,6839715.77],[160489.31,6839729.36],[160490.63,6839749.46],[160463.15,6839779.37],[160438.29,6839781.14],[160393.53,6839809.14],[160364.53,6839807.82],[160281.32,6839824.0],[160236.5,6839873.8],[160213.85,6839951.52],[160194.98,6839980.77],[160214.99,6840033.41],[160246.45,6840041.29],[160250.33,6840069.36],[160284.06,6840139.45],[160301.83,6840155.71],[160309.48,6840191.06],[160348.98,6840226.04],[160400.55,6840249.62],[160422.81,6840276.47],[160434.21,6840274.09],[160458.01,6840221.07]]
    ]
   },
   "properties": {
    "name": null,
    "areaKm2": 0.189,
    "source": "N50 Kartdata, Kartverket, CC BY 4.0"
   }
  },
  {
   "type": "Feature",
   "geometry": {
    "type": "Polygon",
    "coordinates": [
     [[155904.43,6828778.51],[156025.99,6828610.64],[156054.35,6828608.55],[156107.14,6828619.31],[156147.77,6828652.51],[156181.79,6828658.9],[156237.98,6828652.59],[156282.13,6828625.55],[156318.14,6828530.84],[156338.89,6828515.11],[156400.4,6828492.59],[156436.59,6828439.01],[156434.73,6828423.23],[156400.73,6828364.77],[156405.35,6828326.44],[156400.25,6828316.87],[156309.28,6828268.86],[156267.07,6828260.12],[156205.64,6828274.14],[156183.53,6828285.89],[156161.85,6828311.43],[156149.53,6828312.92],[156127.14,6828296.7],[156141.4,6828264.02],[156138.48,6828250.51],[156120.63,6828236.28],[156096.88,6828238.23],[156051.78,6828255.16],[156019.56,6828299.67],[155934.77,6828335.71],[155918.15,6828363.27],[155921.26,6828395.46],[155905.25,6828410.88],[155904.0,6828411.01],[155904.0,6828778.79],[155904.43,6828778.51]]
    ]
   },
   "properties": {
    "name": null,
    "areaKm2": 0.17,
    "source": "N50 Kartdata, Kartverket, CC BY 4.0"
   }
  },
  {
   "type": "Feature",
   "geometry": {
    "type": "Polygon",
    "coordinates": [
     [[161179.53,6827303.89],[161267.67,6827291.62],[161315.97,6827266.29],[161427.27,6827251.15],[161480.44,6827226.61],[161482.83,6827208.7],[161589.5,6827014.51],[161732.85,6826880.0],[161453.93,6826880.0],[161376.05,6826953.11],[161247.99,6827024.88],[161133.39,6827137.83],[161089.34,6827239.63],[161059.08,6827269.51],[161066.36,6827316.95],[161088.65,6827340.1],[161145.51,6827331.69],[161179.53,6827303.89]]
    ]
   },
   "properties": {
    "name": null,
    "areaKm2": 0.141,
    "source": "N50 Kartdata, Kartverket, CC BY 4.0"
   }
  },
  {
   "type": "Feature",
   "geometry": {
    "type": "Polygon",
    "coordinates": [
     [[160231.92,6827463.95],[160233.17,6827450.31],[160185.11,6827417.67],[160175.57,6827383.58],[160160.47,6827375.15],[160146.17,6827341.82],[160097.97,6827298.89],[160090.56,6827273.35],[160078.08,6827264.81],[160042.76,6827273.45],[160033.9,6827283.53],[160032.55,6827309.89],[159996.14,6827330.96],[159957.19,6827371.61],[159940.43,6827372.08],[159930.69,6827343.12],[159973.46,6827295.63],[159975.49,6827273.07],[159923.54,6827282.45],[159909.08,6827274.0],[159892.05,6827124.91],[159897.67,6827114.21],[159921.95,6827102.19],[160014.12,6827076.45],[160020.13,6827040.4],[160028.28,6827033.57],[160112.79,6827021.42],[160128.74,6827010.03],[160129.83,6826990.6],[160062.1,6826938.17],[160071.03,6826919.02],[160269.52,6826907.67],[160319.97,6826880.0],[159866.11,6826880.0],[159870.35,6826923.43],[159848.93,6826974.83],[159853.8,6827128.21],[159842.57,6827157.09],[159843.29,6827187.44],[159821.32,6827225.17],[159856.12,6827365.66],[159914.99,6827423.49],[159945.04,6827432.18],[159991.91,6827466.76],[160035.86,6827453.44],[160061.44,6827405.76],[160076.01,6827400.58],[160084.79,6827438.87],[160065.0,6827462.45],[160067.59,6827478.82],[160125.82,6827497.67],[160198.97,6827486.59],[160231.92,6827463.95]]
    ]
   },
   "properties": {
    "name": null,
    "areaKm2": 0.113,
    "source": "N50 Kartdata, Kartverket, CC BY 4.0"
   }
  },
  {
   "type": "Feature",
   "geometry": {
    "type": "Polygon",
    "coordinates": [
     [[160329.08,6838757.47],[160384.64,6838745.87],[160603.33,6838647.98],[160526.11,6838585.21],[160545.76,6838544.81],[160545.84,6838505.46],[160558.23,6838495.98],[160618.32,6838488.01],[160726.97,6838541.56],[160772.66,6838541.91],[160782.99,6838533.88],[160781.58,6838517.5],[160746.67,6838462.9],[160745.32,6838426.99],[160761.96,6838426.0],[160798.08,6838467.05],[160814.06,6838474.64],[160909.42,6838502.51],[160930.35,6838501.04],[160937.79,6838494.46],[160936.23,6838476.48],[160912.24,6838413.94],[160896.74,6838398.31],[160820.93,6838376.07],[160695.43,6838370.0],[160655.11,6838392.32],[160613.85,6838427.65],[160499.28,6838454.97],[160454.79,6838484.29],[160414.89,6838534.76],[160333.39,6838570.91],[160288.42,6838618.41],[160257.51,6838683.22],[160248.18,6838779.16],[160251.72,6838811.78],[160269.07,6838808.96],[160299.82,6838772.43],[160329.08,6838757.47]]
    ]
   },
   "properties": {
    "name": null,
    "areaKm2": 0.1,
    "source": "N50 Kartdata, Kartverket, CC BY 4.0"
   }
  },
  {
   "type": "Feature",
   "geometry": {
    "type": "Polygon",
    "coordinates": [
     [[156618.16,6843124.96],[156598.98,6843094.02],[156607.34,6843053.41],[156640.48,6843044.59],[156629.29,6843068.92],[156646.51,6843113.02],[156687.92,6843099.19],[156661.08,6843059.87],[156658.75,6843017.8],[156685.52,6843018.15],[156699.7,6843034.75],[156726.52,6843046.67],[156749.38,6843042.98],[156807.3,6843021.79],[156798.5,6843000.43],[156803.49,6842996.51],[156813.36,6842996.13],[156832.8,6843013.14],[156881.85,6842998.6],[156917.53,6842971.42],[156929.61,6842951.29],[156918.25,6842918.5],[156878.49,6842873.82],[156838.74,6842867.49],[156758.51,6842831.69],[156736.76,6842835.11],[156691.62,6842876.61],[156615.72,6842885.21],[156612.01,6842872.92],[156639.45,6842849.82],[156623.27,6842832.39],[156632.04,6842818.21],[156630.92,6842785.87],[156676.94,6842736.19],[156669.94,6842707.69],[156706.04,6842711.33],[156721.83,6842691.41],[156718.1,6842682.27],[156675.88,6842667.25],[156643.22,6842621.8],[156638.19,6842584.19],[156628.1,6842575.91],[156583.4,6842586.63],[156606.86,6842657.47],[156592.23,6842684.26],[156601.34,6842742.63],[156586.66,6842776.65],[156585.44,6842832.1],[156596.97,6842861.81],[156578.12,6842864.03],[156523.03,6842988.48],[156525.5,6843021.44],[156548.16,6843013.84],[156555.47,6843020.04],[156558.21,6843036.22],[156546.6,6843051.57],[156559.62,6843059.64],[156563.14,6843090.58],[156551.67,6843096.42],[156531.74,6843060.98],[156522.22,6843058.53],[156466.97,6843115.79],[156469.84,6843140.13],[156491.29,6843153.56],[156497.56,6843174.25],[156513.5,6843182.51],[156574.76,6843176.67],[156605.0,6843161.8],[156618.16,6843124.96]]
    ]
   },
   "properties": {
    "name": null,
    "areaKm2": 0.094,
    "source": "N50 Kartdata, Kartverket, CC BY 4.0"
   }
  },
  {
   "type": "Feature",
   "geometry": {
    "type": "Polygon",
    "coordinates": [
     [[161085.41,6828103.57],[161085.85,6828089.52],[161028.02,6828058.02],[161024.79,6828012.29],[161007.5,6827998.39],[160953.45,6827981.63],[160880.85,6827984.05],[160848.57,6827957.71],[160738.49,6827979.17],[160724.68,6827952.52],[160715.9,6827951.86],[160693.25,6827967.83],[160675.23,6828008.4],[160653.92,6828011.41],[160648.1,6828021.11],[160660.9,6828112.22],[160687.61,6828144.04],[160773.63,6828195.05],[160862.59,6828190.79],[160906.66,6828208.33],[160949.36,6828210.45],[161008.14,6828234.37],[161016.1,6828230.95],[161030.7,6828176.41],[161085.41,6828103.57]]
    ]
   },
   "properties": {
    "name": null,
    "areaKm2": 0.083,
    "source": "N50 Kartdata, Kartverket, CC BY 4.0"
   }
  },
  {
   "type": "Feature",
   "geometry": {
    "type": "Polygon",
    "coordinates": [
     [[159779.84,6830199.07],[159837.43,6830130.29],[159859.61,6830070.63],[159880.73,6830062.08],[159921.34,6829991.26],[159986.6,6829938.66],[159974.03,6829918.79],[159974.59,6829875.3],[159964.91,6829862.47],[159926.05,6829861.49],[159853.07,6829911.32],[159828.86,6829916.34],[159801.14,6829943.68],[159762.49,6829947.4],[159737.28,6829995.74],[159748.46,6830058.07],[159716.91,6830094.2],[159709.11,6830123.48],[159679.5,6830149.73],[159653.56,6830190.88],[159640.33,6830194.07],[159606.16,6830178.03],[159584.78,6830152.15],[159561.48,6830157.54],[159562.78,6830170.84],[159588.81,6830188.02],[159592.97,6830202.31],[159561.8,6830218.8],[159563.74,6830235.26],[159597.54,6830261.48],[159640.87,6830279.71],[159676.33,6830316.19],[159692.02,6830312.35],[159683.11,6830288.57],[159687.9,6830275.16],[159779.84,6830199.07]]
    ]
   },
   "properties": {
    "name": null,
    "areaKm2": 0.063,
    "source": "N50 Kartdata, Kartverket, CC BY 4.0"
   }
  },
  {
   "type": "Feature",
   "geometry": {
    "type": "Polygon",
    "coordinates": [
     [[163150.56,6828286.84],[163234.28,6828190.3],[163283.46,6828094.76],[163284.16,6828057.7],[163272.95,6828038.41],[163274.02,6827970.31],[163304.13,6827917.33],[163311.48,6827880.15],[163303.12,6827850.71],[163285.92,6827852.64],[163271.24,6827874.42],[163238.94,6827878.09],[163178.05,6827935.34],[163175.43,6827957.71],[163181.92,6827966.82],[163218.87,6827969.27],[163218.13,6827996.99],[163209.83,6828005.58],[163163.03,6828016.12],[163143.45,6828052.83],[163104.51,6828099.51],[163050.34,6828206.64],[163028.87,6828258.6],[163032.23,6828314.32],[163014.72,6828356.77],[163016.88,6828370.93],[163038.52,6828373.44],[163088.97,6828341.19],[163150.56,6828286.84]]
    ]
   },
   "properties": {
    "name": null,
    "areaKm2": 0.062,
    "source": "N50 Kartdata, Kartverket, CC BY 4.0"
   }
  },
  {
   "type": "Feature",
   "geometry": {
    "type": "Polygon",
    "coordinates": [
     [[159392.33,6826883.8],[159397.93,6826910.16],[159381.02,6826961.55],[159386.83,6826983.52],[159425.3,6827029.48],[159434.77,6827068.0],[159481.32,6827090.78],[159526.02,6827098.37],[159550.63,6827084.64],[159612.93,6827078.17],[159644.53,6827059.48],[159688.0,6827006.15],[159741.35,6826910.98],[159742.74,6826880.0],[159395.08,6826880.0],[159392.33,6826883.8]]
    ]
   },
   "properties": {
    "name": null,
    "areaKm2": 0.06,
    "source": "N50 Kartdata, Kartverket, CC BY 4.0"
   }
  },
  {
   "type": "Feature",
   "geometry": {
    "type": "Polygon",
    "coordinates": [
     [[160375.81,6839194.25],[160391.67,6839212.54],[160401.3,6839212.8],[160477.86,6839179.13],[160540.12,6839107.44],[160537.18,6839059.93],[160524.25,6839041.42],[160523.35,6838990.55],[160508.83,6838968.26],[160485.3,6838982.55],[160452.52,6838974.32],[160424.36,6838984.66],[160387.78,6838965.49],[160352.23,6838986.48],[160342.07,6839017.63],[160288.86,6839014.08],[160290.85,6839054.96],[160303.67,6839092.37],[160294.08,6839131.21],[160310.89,6839205.55],[160322.8,6839225.8],[160349.97,6839239.21],[160370.84,6839232.96],[160375.81,6839194.25]]
    ]
   },
   "properties": {
    "name": null,
    "areaKm2": 0.049,
    "source": "N50 Kartdata, Kartverket, CC BY 4.0"
   }
  },
  {
   "type": "Feature",
   "geometry": {
    "type": "Polygon",
    "coordinates": [
     [[155985.1,6843026.98],[155996.67,6843018.28],[156031.93,6842945.23],[156031.64,6842926.46],[156005.29,6842924.21],[156054.1,6842883.68],[156046.4,6842821.67],[156001.42,6842785.66],[155971.16,6842772.48],[155965.22,6842740.93],[155942.26,6842724.07],[155949.63,6842690.14],[155973.85,6842665.4],[155925.24,6842676.55],[155904.0,6842677.2],[155904.0,6843038.34],[155985.1,6843026.98]]
    ]
   },
   "properties": {
    "name": null,
    "areaKm2": 0.037,
    "source": "N50 Kartdata, Kartverket, CC BY 4.0"
   }
  }
 ]
}
