{
 "type": "FeatureCollection",
 "crs": {
  "type": "name",
  "properties": {
   "name": "urn:ogc:def:crs:EPSG::25833"
  }
 },
 "bbox": [
  155904,
  6826880,
  176384,
  6843264
 ],
 "features": [
  {
   "type": "Feature",
   "geometry": {
    "type": "Point",
    "coordinates": [
     168172.12,
     6829897.84,
     1095.5
    ]
   },
   "properties": {
    "name": "Semmellægret",
    "kind": "slope",
    "kindNo": "Li",
    "elevM": 1095.5,
    "relief1kmM": 57.8,
    "relief2kmM": 112.8,
    "ssrId": 8781,
    "ssrUpdated": null,
    "showAt": 3
   }
  },
  {
   "type": "Feature",
   "geometry": {
    "type": "Point",
    "coordinates": [
     170551.55,
     6830538.45,
     1057.38
    ]
   },
   "properties": {
    "name": "Vargebakkan",
    "kind": "slope",
    "kindNo": "Bakke",
    "elevM": 1057.4,
    "relief1kmM": 74.7,
    "relief2kmM": 85.9,
    "ssrId": 8786,
    "ssrUpdated": null,
    "showAt": 3
   }
  },
  {
   "type": "Feature",
   "geometry": {
    "type": "Point",
    "coordinates": [
     158578.98,
     6834768.6,
     1195.14
    ]
   },
   "properties": {
    "name": "Memurudalen",
    "kind": "valley",
    "kindNo": "Dal",
    "elevM": 1195.1,
    "relief1kmM": 92.6,
    "relief2kmM": 210.8,
    "ssrId": 8797,
    "ssrUpdated": null,
    "showAt": 2
   }
  },
  {
   "type": "Feature",
   "geometry": {
    "type": "Point",
    "coordinates": [
     158451.6,
     6834500.96,
     1155.68
    ]
   },
   "properties": {
    "name": "Muru",
    "kind": "river",
    "kindNo": "Elv",
    "elevM": 1155.7,
    "relief1kmM": 55.3,
    "relief2kmM": 171.4,
    "ssrId": 8798,
    "ssrUpdated": null,
    "showAt": 2
   }
  },
  {
   "type": "Feature",
   "geometry": {
    "type": "Point",
    "coordinates": [
     173195.81,
     6834606.54,
     954.4
    ]
   },
   "properties": {
    "name": "Tangen",
    "kind": "point",
    "kindNo": "Nes",
    "elevM": 954.4,
    "relief1kmM": 0.9,
    "relief2kmM": 0.9,
    "ssrId": 10879,
    "ssrUpdated": null,
    "showAt": 3
   }
  },
  {
   "type": "Feature",
   "geometry": {
    "type": "Point",
    "coordinates": [
     163610.13,
     6835235.24,
     1474.1
    ]
   },
   "properties": {
    "name": "Bjørnbøltjønne",
    "kind": "tarn",
    "kindNo": "Tjern",
    "elevM": 1474.1,
    "relief1kmM": 489.7,
    "relief2kmM": 489.8,
    "ssrId": 10924,
    "ssrUpdated": null,
    "showAt": 3
   }
  },
  {
   "type": "Feature",
   "geometry": {
    "type": "Point",
    "coordinates": [
     171044.25,
     6840225.86,
     1159.8
    ]
   },
   "properties": {
    "name": "Russa",
    "kind": "river",
    "kindNo": "Elv",
    "elevM": 1159.8,
    "relief1kmM": 46.8,
    "relief2kmM": 81.6,
    "ssrId": 10937,
    "ssrUpdated": null,
    "showAt": 2
   }
  },
  {
   "type": "Feature",
   "geometry": {
    "type": "Point",
    "coordinates": [
     165270.75,
     6838711.43,
     1927.77
    ]
   },
   "properties": {
    "name": "Kollhøin",
    "kind": "peak",
    "kindNo": "Fjell",
    "elevM": 1927.8,
    "relief1kmM": 492.7,
    "relief2kmM": 753.5,
    "ssrId": 10939,
    "ssrUpdated": null,
    "showAt": 1
   }
  },
  {
   "type": "Feature",
   "geometry": {
    "type": "Point",
    "coordinates": [
     163509.5,
     6839460.71,
     1178.8
    ]
   },
   "properties": {
    "name": "Sundodden",
    "kind": "point",
    "kindNo": "Nes",
    "elevM": 1178.8,
    "relief1kmM": 4.5,
    "relief2kmM": 4.6,
    "ssrId": 10940,
    "ssrUpdated": null,
    "showAt": 3
   }
  },
  {
   "type": "Feature",
   "geometry": {
    "type": "Point",
    "coordinates": [
     165500.08,
     6832420.49,
     1060.34
    ]
   },
   "properties": {
    "name": "Veslløyfte",
    "kind": "pass",
    "kindNo": "Skar",
    "elevM": 1060.3,
    "relief1kmM": 75.9,
    "relief2kmM": 76.0,
    "ssrId": 26289,
    "ssrUpdated": null,
    "showAt": 2
   }
  },
  {
   "type": "Feature",
   "geometry": {
    "type": "Point",
    "coordinates": [
     173771.91,
     6835722.52,
     957.35
    ]
   },
   "properties": {
    "name": "Bessneset",
    "kind": "point",
    "kindNo": "Nes",
    "elevM": 957.4,
    "relief1kmM": 3.9,
    "relief2kmM": 3.9,
    "ssrId": 53599,
    "ssrUpdated": null,
    "showAt": 3
   }
  },
  {
   "type": "Feature",
   "geometry": {
    "type": "Point",
    "coordinates": [
     175737.39,
     6836874.49,
     953.5
    ]
   },
   "properties": {
    "name": "Breinnsvavika",
    "kind": "point",
    "kindNo": "Vik",
    "elevM": 953.5,
    "relief1kmM": 0.0,
    "relief2kmM": 0.0,
    "ssrId": 53613,
    "ssrUpdated": null,
    "showAt": 3
   }
  },
  {
   "type": "Feature",
   "geometry": {
    "type": "Point",
    "coordinates": [
     172035.75,
     6828708.07,
     1308.4
    ]
   },
   "properties": {
    "name": "Brurskardstjønne",
    "kind": "tarn",
    "kindNo": "Tjern",
    "elevM": 1308.4,
    "relief1kmM": 36.1,
    "relief2kmM": 187.2,
    "ssrId": 69774,
    "ssrUpdated": null,
    "showAt": 3
   }
  },
  {
   "type": "Feature",
   "geometry": {
    "type": "Point",
    "coordinates": [
     162863.69,
     6832218.14,
     1534.32
    ]
   },
   "properties": {
    "name": "Svarva",
    "kind": "stream",
    "kindNo": "Bekk",
    "elevM": 1534.3,
    "relief1kmM": 550.0,
    "relief2kmM": 550.0,
    "ssrId": 69781,
    "ssrUpdated": null,
    "showAt": 3
   }
  },
  {
   "type": "Feature",
   "geometry": {
    "type": "Point",
    "coordinates": [
     160844.19,
     6832029.35,
     1217.67
    ]
   },
   "properties": {
    "name": "Tjønnholåe",
    "kind": "stream",
    "kindNo": "Bekk",
    "elevM": 1217.7,
    "relief1kmM": 233.4,
    "relief2kmM": 233.5,
    "ssrId": 69787,
    "ssrUpdated": null,
    "showAt": 3
   }
  },
  {
   "type": "Feature",
   "geometry": {
    "type": "Point",
    "coordinates": [
     168356.81,
     6834052.02,
     1013.58
    ]
   },
   "properties": {
    "name": "Hamnhåmåren",
    "kind": "point",
    "kindNo": "Nes",
    "elevM": 1013.6,
    "relief1kmM": 29.2,
    "relief2kmM": 30.9,
    "ssrId": 69793,
    "ssrUpdated": null,
    "showAt": 3
   }
  },
  {
   "type": "Feature",
   "geometry": {
    "type": "Point",
    "coordinates": [
     160349.81,
     6833562.75,
     1304.69
    ]
   },
   "properties": {
    "name": "Sjugurdtinden",
    "kind": "peak",
    "kindNo": "Fjell",
    "elevM": 1304.7,
    "relief1kmM": 320.4,
    "relief2kmM": 320.4,
    "ssrId": 69799,
    "ssrUpdated": null,
    "showAt": 2
   }
  },
  {
   "type": "Feature",
   "geometry": {
    "type": "Point",
    "coordinates": [
     163867.25,
     6834048.36,
     984.4
    ]
   },
   "properties": {
    "name": "Gjende",
    "kind": "lake",
    "kindNo": "Innsjø",
    "elevM": 984.4,
    "relief1kmM": 0.1,
    "relief2kmM": 0.1,
    "ssrId": 69801,
    "ssrUpdated": null,
    "showAt": 1
   }
  },
  {
   "type": "Feature",
   "geometry": {
    "type": "Point",
    "coordinates": [
     174852.1,
     6835511.36,
     957.0
    ]
   },
   "properties": {
    "name": "Hoska",
    "kind": "stream",
    "kindNo": "Bekk",
    "elevM": 957.0,
    "relief1kmM": 3.5,
    "relief2kmM": 3.5,
    "ssrId": 70843,
    "ssrUpdated": null,
    "showAt": 3
   }
  },
  {
   "type": "Feature",
   "geometry": {
    "type": "Point",
    "coordinates": [
     168772.27,
     6840907.63,
     1176.44
    ]
   },
   "properties": {
    "name": "Grotodden",
    "kind": "point",
    "kindNo": "Nes",
    "elevM": 1176.4,
    "relief1kmM": 2.2,
    "relief2kmM": 7.4,
    "ssrId": 71929,
    "ssrUpdated": null,
    "showAt": 3
   }
  },
  {
   "type": "Feature",
   "geometry": {
    "type": "Point",
    "coordinates": [
     169598.51,
     6842688.4,
     1592.43
    ]
   },
   "properties": {
    "name": "Russfjellet",
    "kind": "peak",
    "kindNo": "Fjell",
    "elevM": 1592.4,
    "relief1kmM": 333.7,
    "relief2kmM": 418.2,
    "ssrId": 71931,
    "ssrUpdated": null,
    "showAt": 2
   }
  },
  {
   "type": "Feature",
   "geometry": {
    "type": "Point",
    "coordinates": [
     165369.39,
     6837308.14,
     1934.78
    ]
   },
   "properties": {
    "name": "Besshøbrean",
    "kind": "glacier",
    "kindNo": "Isbre",
    "elevM": 1934.8,
    "relief1kmM": 302.2,
    "relief2kmM": 719.5,
    "ssrId": 71947,
    "ssrUpdated": null,
    "showAt": 2
   }
  },
  {
   "type": "Feature",
   "geometry": {
    "type": "Point",
    "coordinates": [
     167323.59,
     6837244.26,
     1428.95
    ]
   },
   "properties": {
    "name": "Grotåe",
    "kind": "stream",
    "kindNo": "Bekk",
    "elevM": 1428.9,
    "relief1kmM": 57.0,
    "relief2kmM": 57.3,
    "ssrId": 71948,
    "ssrUpdated": null,
    "showAt": 3
   }
  },
  {
   "type": "Feature",
   "geometry": {
    "type": "Point",
    "coordinates": [
     172443.09,
     6837702.36,
     1387.27
    ]
   },
   "properties": {
    "name": "Besstrandfjell",
    "kind": "peak",
    "kindNo": "Fjell",
    "elevM": 1387.3,
    "relief1kmM": 104.1,
    "relief2kmM": 390.6,
    "ssrId": 71952,
    "ssrUpdated": null,
    "showAt": 2
   }
  },
  {
   "type": "Feature",
   "geometry": {
    "type": "Point",
    "coordinates": [
     167861.95,
     6835018.12,
     1741.41
    ]
   },
   "properties": {
    "name": "Veslefjell",
    "kind": "peak",
    "kindNo": "Fjell",
    "elevM": 1741.4,
    "relief1kmM": 757.0,
    "relief2kmM": 757.0,
    "ssrId": 71966,
    "ssrUpdated": null,
    "showAt": 1
   }
  },
  {
   "type": "Feature",
   "geometry": {
    "type": "Point",
    "coordinates": [
     160931.41,
     6827572.94,
     2142.79
    ]
   },
   "properties": {
    "name": "Tjønnholsoksle",
    "kind": "peak",
    "kindNo": "Fjell",
    "elevM": 2142.8,
    "relief1kmM": 420.4,
    "relief2kmM": 442.1,
    "ssrId": 87264,
    "ssrUpdated": null,
    "showAt": 1
   }
  },
  {
   "type": "Feature",
   "geometry": {
    "type": "Point",
    "coordinates": [
     158978.15,
     6828169.57,
     2148.8
    ]
   },
   "properties": {
    "name": "Midtre Skarvflytinden",
    "kind": "peak",
    "kindNo": "Fjell",
    "elevM": 2148.8,
    "relief1kmM": 499.9,
    "relief2kmM": 720.3,
    "ssrId": 87268,
    "ssrUpdated": null,
    "showAt": 1
   }
  },
  {
   "type": "Feature",
   "geometry": {
    "type": "Point",
    "coordinates": [
     170600.78,
     6833638.99,
     984.5
    ]
   },
   "properties": {
    "name": "Gjendeosen",
    "kind": "stream",
    "kindNo": "Os",
    "elevM": 984.5,
    "relief1kmM": 5.9,
    "relief2kmM": 28.6,
    "ssrId": 114633,
    "ssrUpdated": null,
    "showAt": 3
   }
  },
  {
   "type": "Feature",
   "geometry": {
    "type": "Point",
    "coordinates": [
     175246.75,
     6828601.61,
     1842.75
    ]
   },
   "properties": {
    "name": "Heimdalshøe",
    "kind": "peak",
    "kindNo": "Fjell",
    "elevM": 1842.7,
    "relief1kmM": 274.9,
    "relief2kmM": 457.7,
    "ssrId": 128207,
    "ssrUpdated": null,
    "showAt": 2
   }
  },
  {
   "type": "Feature",
   "geometry": {
    "type": "Point",
    "coordinates": [
     161160.75,
     6827921.91,
     1767.48
    ]
   },
   "properties": {
    "name": "Søre Tjønnholet",
    "kind": "cirque",
    "kindNo": "Botn",
    "elevM": 1767.5,
    "relief1kmM": 49.1,
    "relief2kmM": 83.2,
    "ssrId": 129157,
    "ssrUpdated": null,
    "showAt": 3
   }
  },
  {
   "type": "Feature",
   "geometry": {
    "type": "Point",
    "coordinates": [
     167694.15,
     6831098.85,
     1034.6
    ]
   },
   "properties": {
    "name": "Leirungsåe",
    "kind": "river",
    "kindNo": "Elv",
    "elevM": 1034.6,
    "relief1kmM": 1.1,
    "relief2kmM": 51.9,
    "ssrId": 129768,
    "ssrUpdated": null,
    "showAt": 2
   }
  },
  {
   "type": "Feature",
   "geometry": {
    "type": "Point",
    "coordinates": [
     174943.47,
     6841377.3,
     1125.3
    ]
   },
   "properties": {
    "name": "Russhaugan",
    "kind": "slope",
    "kindNo": "Li",
    "elevM": 1125.3,
    "relief1kmM": 129.2,
    "relief2kmM": 161.8,
    "ssrId": 131860,
    "ssrUpdated": null,
    "showAt": 3
   }
  },
  {
   "type": "Feature",
   "geometry": {
    "type": "Point",
    "coordinates": [
     175836.61,
     6839976.45,
     1180.37
    ]
   },
   "properties": {
    "name": "Bakliberget",
    "kind": "peak",
    "kindNo": "Berg",
    "elevM": 1180.4,
    "relief1kmM": 197.9,
    "relief2kmM": 226.9,
    "ssrId": 131866,
    "ssrUpdated": null,
    "showAt": 3
   }
  },
  {
   "type": "Feature",
   "geometry": {
    "type": "Point",
    "coordinates": [
     174748.92,
     6841064.54,
     1096.74
    ]
   },
   "properties": {
    "name": "Russdalen",
    "kind": "valley",
    "kindNo": "Dal",
    "elevM": 1096.7,
    "relief1kmM": 93.1,
    "relief2kmM": 133.2,
    "ssrId": 131868,
    "ssrUpdated": null,
    "showAt": 2
   }
  },
  {
   "type": "Feature",
   "geometry": {
    "type": "Point",
    "coordinates": [
     174768.73,
     6836766.82,
     966.23
    ]
   },
   "properties": {
    "name": "Meneset",
    "kind": "point",
    "kindNo": "Nes",
    "elevM": 966.2,
    "relief1kmM": 12.7,
    "relief2kmM": 12.7,
    "ssrId": 131906,
    "ssrUpdated": null,
    "showAt": 3
   }
  },
  {
   "type": "Feature",
   "geometry": {
    "type": "Point",
    "coordinates": [
     162149.4,
     6840692.19,
     1757.8
    ]
   },
   "properties": {
    "name": "Surtningssuoksle",
    "kind": "peak",
    "kindNo": "Fjell",
    "elevM": 1757.8,
    "relief1kmM": 477.7,
    "relief2kmM": 583.5,
    "ssrId": 131937,
    "ssrUpdated": null,
    "showAt": 1
   }
  },
  {
   "type": "Feature",
   "geometry": {
    "type": "Point",
    "coordinates": [
     159306.34,
     6835892.42,
     1472.3
    ]
   },
   "properties": {
    "name": "Hesttjønne",
    "kind": "tarn",
    "kindNo": "Tjern",
    "elevM": 1472.3,
    "relief1kmM": 154.4,
    "relief2kmM": 420.8,
    "ssrId": 131942,
    "ssrUpdated": null,
    "showAt": 3
   }
  },
  {
   "type": "Feature",
   "geometry": {
    "type": "Point",
    "coordinates": [
     172024.31,
     6835348.17,
     1096.07
    ]
   },
   "properties": {
    "name": "Veslbessa",
    "kind": "stream",
    "kindNo": "Bekk",
    "elevM": 1096.1,
    "relief1kmM": 142.3,
    "relief2kmM": 142.6,
    "ssrId": 131960,
    "ssrUpdated": null,
    "showAt": 3
   }
  },
  {
   "type": "Feature",
   "geometry": {
    "type": "Point",
    "coordinates": [
     156597.05,
     6828370.42,
     2086.85
    ]
   },
   "properties": {
    "name": "Nørdre Knutsholstinden",
    "kind": "peak",
    "kindNo": "Fjell",
    "elevM": 2086.9,
    "relief1kmM": 670.8,
    "relief2kmM": 950.6,
    "ssrId": 147251,
    "ssrUpdated": null,
    "showAt": 0
   }
  },
  {
   "type": "Feature",
   "geometry": {
    "type": "Point",
    "coordinates": [
     174120.44,
     6833697.89,
     1047.64
    ]
   },
   "properties": {
    "name": "Storhaugen",
    "kind": "peak",
    "kindNo": "Haug",
    "elevM": 1047.6,
    "relief1kmM": 93.4,
    "relief2kmM": 94.1,
    "ssrId": 189204,
    "ssrUpdated": null,
    "showAt": 3
   }
  },
  {
   "type": "Feature",
   "geometry": {
    "type": "Point",
    "coordinates": [
     172717.97,
     6827318.66,
     1371.34
    ]
   },
   "properties": {
    "name": "Rundhøe",
    "kind": "ridge",
    "kindNo": "Ås",
    "elevM": 1371.3,
    "relief1kmM": 120.6,
    "relief2kmM": 185.3,
    "ssrId": 189215,
    "ssrUpdated": null,
    "showAt": 1
   }
  },
  {
   "type": "Feature",
   "geometry": {
    "type": "Point",
    "coordinates": [
     160726.49,
     6829742.22,
     1985.4
    ]
   },
   "properties": {
    "name": "Nørdre Tjønnholet",
    "kind": "cirque",
    "kindNo": "Botn",
    "elevM": 1985.4,
    "relief1kmM": 407.7,
    "relief2kmM": 716.5,
    "ssrId": 190770,
    "ssrUpdated": null,
    "showAt": 3
   }
  },
  {
   "type": "Feature",
   "geometry": {
    "type": "Point",
    "coordinates": [
     171925.74,
     6831230.06,
     1086.33
    ]
   },
   "properties": {
    "name": "Brurskardbekken",
    "kind": "stream",
    "kindNo": "Bekk",
    "elevM": 1086.3,
    "relief1kmM": 115.0,
    "relief2kmM": 124.4,
    "ssrId": 190777,
    "ssrUpdated": null,
    "showAt": 3
   }
  },
  {
   "type": "Feature",
   "geometry": {
    "type": "Point",
    "coordinates": [
     169906.21,
     6831342.86,
     982.79
    ]
   },
   "properties": {
    "name": "Leirungen, nedre",
    "kind": "lake",
    "kindNo": "Vann",
    "elevM": 982.8,
    "relief1kmM": 0.1,
    "relief2kmM": 11.3,
    "ssrId": 190778,
    "ssrUpdated": null,
    "showAt": 1
   }
  },
  {
   "type": "Feature",
   "geometry": {
    "type": "Point",
    "coordinates": [
     165107.06,
     6831277.51,
     1906.26
    ]
   },
   "properties": {
    "name": "Bukkehåmåren",
    "kind": "peak",
    "kindNo": "Fjell",
    "elevM": 1906.3,
    "relief1kmM": 821.5,
    "relief2kmM": 921.9,
    "ssrId": 190785,
    "ssrUpdated": null,
    "showAt": 0
   }
  },
  {
   "type": "Feature",
   "geometry": {
    "type": "Point",
    "coordinates": [
     162076.8,
     6832711.86,
     1380.68
    ]
   },
   "properties": {
    "name": "Memuruhåmåren",
    "kind": "peak",
    "kindNo": "Fjell",
    "elevM": 1380.7,
    "relief1kmM": 396.4,
    "relief2kmM": 396.4,
    "ssrId": 190794,
    "ssrUpdated": null,
    "showAt": 2
   }
  },
  {
   "type": "Feature",
   "geometry": {
    "type": "Point",
    "coordinates": [
     170927.22,
     6833455.37,
     990.42
    ]
   },
   "properties": {
    "name": "Gjendesheim",
    "kind": "hut",
    "kindNo": "Turisthytte",
    "elevM": 990.4,
    "relief1kmM": 14.8,
    "relief2kmM": 36.4,
    "ssrId": 190799,
    "ssrUpdated": null,
    "showAt": 0
   }
  },
  {
   "type": "Feature",
   "geometry": {
    "type": "Point",
    "coordinates": [
     168056.33,
     6839181.09,
     1635.85
    ]
   },
   "properties": {
    "name": "Bessfjellet",
    "kind": "peak",
    "kindNo": "Fjell",
    "elevM": 1635.9,
    "relief1kmM": 327.3,
    "relief2kmM": 461.7,
    "ssrId": 192933,
    "ssrUpdated": null,
    "showAt": 2
   }
  },
  {
   "type": "Feature",
   "geometry": {
    "type": "Point",
    "coordinates": [
     162382.43,
     6839572.8,
     1394.57
    ]
   },
   "properties": {
    "name": "Russbakkan",
    "kind": "slope",
    "kindNo": "Bakke",
    "elevM": 1394.6,
    "relief1kmM": 220.3,
    "relief2kmM": 220.4,
    "ssrId": 192942,
    "ssrUpdated": null,
    "showAt": 3
   }
  },
  {
   "type": "Feature",
   "geometry": {
    "type": "Point",
    "coordinates": [
     161780.37,
     6828893.69,
     2301.45
    ]
   },
   "properties": {
    "name": "Steinflytinden",
    "kind": "peak",
    "kindNo": "Fjell",
    "elevM": 2301.5,
    "relief1kmM": 606.9,
    "relief2kmM": 738.0,
    "ssrId": 208279,
    "ssrUpdated": null,
    "showAt": 0
   }
  },
  {
   "type": "Feature",
   "geometry": {
    "type": "Point",
    "coordinates": [
     176013.72,
     6831052.43,
     1448.69
    ]
   },
   "properties": {
    "name": "Gåpåfjellet",
    "kind": "ridge",
    "kindNo": "Ås",
    "elevM": 1448.7,
    "relief1kmM": 157.7,
    "relief2kmM": 321.6,
    "ssrId": 235637,
    "ssrUpdated": null,
    "showAt": 1
   }
  },
  {
   "type": "Feature",
   "geometry": {
    "type": "Point",
    "coordinates": [
     175079.65,
     6832977.98,
     1098.24
    ]
   },
   "properties": {
    "name": "Hoskelie",
    "kind": "slope",
    "kindNo": "Li",
    "elevM": 1098.2,
    "relief1kmM": 119.2,
    "relief2kmM": 138.2,
    "ssrId": 250238,
    "ssrUpdated": null,
    "showAt": 3
   }
  },
  {
   "type": "Feature",
   "geometry": {
    "type": "Point",
    "coordinates": [
     176343.8,
     6829843.72,
     1821.67
    ]
   },
   "properties": {
    "name": "Styggehøe",
    "kind": "peak",
    "kindNo": "Fjell",
    "elevM": 1821.7,
    "relief1kmM": 288.2,
    "relief2kmM": 504.0,
    "ssrId": 250252,
    "ssrUpdated": null,
    "showAt": 2
   }
  },
  {
   "type": "Feature",
   "geometry": {
    "type": "Point",
    "coordinates": [
     168048.21,
     6832811.36,
     1012.8
    ]
   },
   "properties": {
    "name": "Leirungsholet",
    "kind": "cirque",
    "kindNo": "Botn",
    "elevM": 1012.8,
    "relief1kmM": 30.1,
    "relief2kmM": 30.1,
    "ssrId": 250759,
    "ssrUpdated": null,
    "showAt": 3
   }
  },
  {
   "type": "Feature",
   "geometry": {
    "type": "Point",
    "coordinates": [
     170119.74,
     6832734.35,
     1256.5
    ]
   },
   "properties": {
    "name": "Gjendehøe",
    "kind": "peak",
    "kindNo": "Fjell",
    "elevM": 1256.5,
    "relief1kmM": 276.2,
    "relief2kmM": 286.3,
    "ssrId": 250760,
    "ssrUpdated": null,
    "showAt": 3
   }
  },
  {
   "type": "Feature",
   "geometry": {
    "type": "Point",
    "coordinates": [
     171849.05,
     6833894.9,
     1135.08
    ]
   },
   "properties": {
    "name": "Gjendehalsen",
    "kind": "peak",
    "kindNo": "Fjell",
    "elevM": 1135.1,
    "relief1kmM": 181.1,
    "relief2kmM": 181.6,
    "ssrId": 250767,
    "ssrUpdated": null,
    "showAt": 3
   }
  },
  {
   "type": "Feature",
   "geometry": {
    "type": "Point",
    "coordinates": [
     160564.52,
     6834765.57,
     1192.9
    ]
   },
   "properties": {
    "name": "Hestbekken",
    "kind": "stream",
    "kindNo": "Bekk",
    "elevM": 1192.9,
    "relief1kmM": 198.6,
    "relief2kmM": 208.6,
    "ssrId": 250770,
    "ssrUpdated": null,
    "showAt": 3
   }
  },
  {
   "type": "Feature",
   "geometry": {
    "type": "Point",
    "coordinates": [
     171597.24,
     6829560.4,
     1460.98
    ]
   },
   "properties": {
    "name": "Brurskardknappen, nordre",
    "kind": "peak",
    "kindNo": "Fjell",
    "elevM": 1461.0,
    "relief1kmM": 323.6,
    "relief2kmM": 478.1,
    "ssrId": 251779,
    "ssrUpdated": null,
    "showAt": 2
   }
  },
  {
   "type": "Feature",
   "geometry": {
    "type": "Point",
    "coordinates": [
     169931.97,
     6830265.12,
     1068.4
    ]
   },
   "properties": {
    "name": "Varga",
    "kind": "stream",
    "kindNo": "Bekk",
    "elevM": 1068.4,
    "relief1kmM": 85.7,
    "relief2kmM": 90.8,
    "ssrId": 251781,
    "ssrUpdated": null,
    "showAt": 3
   }
  },
  {
   "type": "Feature",
   "geometry": {
    "type": "Point",
    "coordinates": [
     162097.41,
     6830823.48,
     2011.5
    ]
   },
   "properties": {
    "name": "Eggen",
    "kind": "peak",
    "kindNo": "Fjell",
    "elevM": 2011.5,
    "relief1kmM": 442.6,
    "relief2kmM": 975.7,
    "ssrId": 251782,
    "ssrUpdated": null,
    "showAt": 0
   }
  },
  {
   "type": "Feature",
   "geometry": {
    "type": "Point",
    "coordinates": [
     165738.31,
     6829271.17,
     1666.38
    ]
   },
   "properties": {
    "name": "Steinflye",
    "kind": "slope",
    "kindNo": "Hylle",
    "elevM": 1666.4,
    "relief1kmM": 281.6,
    "relief2kmM": 556.0,
    "ssrId": 251785,
    "ssrUpdated": null,
    "showAt": 3
   }
  },
  {
   "type": "Feature",
   "geometry": {
    "type": "Point",
    "coordinates": [
     162859.42,
     6829614.02,
     2224.13
    ]
   },
   "properties": {
    "name": "Høgdebrotet",
    "kind": "peak",
    "kindNo": "Fjell",
    "elevM": 2224.1,
    "relief1kmM": 457.2,
    "relief2kmM": 637.1,
    "ssrId": 251787,
    "ssrUpdated": null,
    "showAt": 1
   }
  },
  {
   "type": "Feature",
   "geometry": {
    "type": "Point",
    "coordinates": [
     156814.02,
     6832602.5,
     1252.9
    ]
   },
   "properties": {
    "name": "Langtjønne",
    "kind": "tarn",
    "kindNo": "Tjern",
    "elevM": 1252.9,
    "relief1kmM": 268.6,
    "relief2kmM": 268.6,
    "ssrId": 251802,
    "ssrUpdated": null,
    "showAt": 3
   }
  },
  {
   "type": "Feature",
   "geometry": {
    "type": "Point",
    "coordinates": [
     175978.04,
     6840643.73,
     1020.44
    ]
   },
   "properties": {
    "name": "Baklie",
    "kind": "slope",
    "kindNo": "Li",
    "elevM": 1020.4,
    "relief1kmM": 56.9,
    "relief2kmM": 56.9,
    "ssrId": 252803,
    "ssrUpdated": null,
    "showAt": 3
   }
  },
  {
   "type": "Feature",
   "geometry": {
    "type": "Point",
    "coordinates": [
     156308.45,
     6838818.88,
     1598.98
    ]
   },
   "properties": {
    "name": "Surtningssubekken",
    "kind": "stream",
    "kindNo": "Bekk",
    "elevM": 1599.0,
    "relief1kmM": 169.4,
    "relief2kmM": 212.4,
    "ssrId": 253932,
    "ssrUpdated": null,
    "showAt": 3
   }
  },
  {
   "type": "Feature",
   "geometry": {
    "type": "Point",
    "coordinates": [
     157866.68,
     6840293.73,
     2195.35
    ]
   },
   "properties": {
    "name": "Søre Blåbreahøe",
    "kind": "peak",
    "kindNo": "Fjell",
    "elevM": 2195.4,
    "relief1kmM": 530.4,
    "relief2kmM": 646.4,
    "ssrId": 269371,
    "ssrUpdated": null,
    "showAt": 1
   }
  },
  {
   "type": "Feature",
   "geometry": {
    "type": "Point",
    "coordinates": [
     160127.64,
     6826916.04,
     1777.07
    ]
   },
   "properties": {
    "name": "Skarvflyløyftbrean",
    "kind": "glacier",
    "kindNo": "Isbre",
    "elevM": 1777.1,
    "relief1kmM": 35.4,
    "relief2kmM": 70.5,
    "ssrId": 310129,
    "ssrUpdated": null,
    "showAt": 2
   }
  },
  {
   "type": "Feature",
   "geometry": {
    "type": "Point",
    "coordinates": [
     161555.44,
     6828831.0,
     2296.33
    ]
   },
   "properties": {
    "name": "Tjønnholstinden",
    "kind": "peak",
    "kindNo": "Fjell",
    "elevM": 2296.3,
    "relief1kmM": 589.3,
    "relief2kmM": 733.3,
    "ssrId": 311166,
    "ssrUpdated": null,
    "showAt": 1
   }
  },
  {
   "type": "Feature",
   "geometry": {
    "type": "Point",
    "coordinates": [
     172593.34,
     6832647.23,
     977.4
    ]
   },
   "properties": {
    "name": "Maurvangen",
    "kind": "other",
    "kindNo": "Enebolig/mindre boligbygg",
    "elevM": 977.4,
    "relief1kmM": 19.9,
    "relief2kmM": 23.8,
    "ssrId": 311281,
    "ssrUpdated": null,
    "showAt": 3
   }
  },
  {
   "type": "Feature",
   "geometry": {
    "type": "Point",
    "coordinates": [
     173766.58,
     6827406.41,
     1459.3
    ]
   },
   "properties": {
    "name": "Veslfjellet",
    "kind": "peak",
    "kindNo": "Topp",
    "elevM": 1459.3,
    "relief1kmM": 183.7,
    "relief2kmM": 206.1,
    "ssrId": 311299,
    "ssrUpdated": null,
    "showAt": 3
   }
  },
  {
   "type": "Feature",
   "geometry": {
    "type": "Point",
    "coordinates": [
     172989.48,
     6829836.19,
     1447.04
    ]
   },
   "properties": {
    "name": "Molflyhalsen",
    "kind": "ridge",
    "kindNo": "Fjellkant",
    "elevM": 1447.0,
    "relief1kmM": 242.8,
    "relief2kmM": 414.5,
    "ssrId": 311303,
    "ssrUpdated": null,
    "showAt": 1
   }
  },
  {
   "type": "Feature",
   "geometry": {
    "type": "Point",
    "coordinates": [
     173014.89,
     6831428.75,
     1144.61
    ]
   },
   "properties": {
    "name": "Molflyin",
    "kind": "slope",
    "kindNo": "Li",
    "elevM": 1144.6,
    "relief1kmM": 156.1,
    "relief2kmM": 184.4,
    "ssrId": 311314,
    "ssrUpdated": null,
    "showAt": 3
   }
  },
  {
   "type": "Feature",
   "geometry": {
    "type": "Point",
    "coordinates": [
     163532.27,
     6830247.73,
     2059.23
    ]
   },
   "properties": {
    "name": "Kvassryggen",
    "kind": "ridge",
    "kindNo": "Rygg",
    "elevM": 2059.2,
    "relief1kmM": 364.7,
    "relief2kmM": 589.9,
    "ssrId": 311798,
    "ssrUpdated": null,
    "showAt": 1
   }
  },
  {
   "type": "Feature",
   "geometry": {
    "type": "Point",
    "coordinates": [
     168051.26,
     6829369.4,
     1299.97
    ]
   },
   "properties": {
    "name": "Semelhøe",
    "kind": "peak",
    "kindNo": "Fjell",
    "elevM": 1300.0,
    "relief1kmM": 243.1,
    "relief2kmM": 266.0,
    "ssrId": 311799,
    "ssrUpdated": null,
    "showAt": 3
   }
  },
  {
   "type": "Feature",
   "geometry": {
    "type": "Point",
    "coordinates": [
     161397.01,
     6839308.61,
     2075.91
    ]
   },
   "properties": {
    "name": "Austre Surtningssue",
    "kind": "peak",
    "kindNo": "Fjell",
    "elevM": 2075.9,
    "relief1kmM": 760.1,
    "relief2kmM": 901.7,
    "ssrId": 329358,
    "ssrUpdated": null,
    "showAt": 0
   }
  },
  {
   "type": "Feature",
   "geometry": {
    "type": "Point",
    "coordinates": [
     169034.14,
     6827144.72,
     1141.51
    ]
   },
   "properties": {
    "name": "Flybekken",
    "kind": "stream",
    "kindNo": "Bekk",
    "elevM": 1141.5,
    "relief1kmM": 5.4,
    "relief2kmM": 26.0,
    "ssrId": 372139,
    "ssrUpdated": null,
    "showAt": 3
   }
  },
  {
   "type": "Feature",
   "geometry": {
    "type": "Point",
    "coordinates": [
     171078.4,
     6827872.72,
     1457.56
    ]
   },
   "properties": {
    "name": "Brurskardknappen, s",
    "kind": "peak",
    "kindNo": "Fjell",
    "elevM": 1457.6,
    "relief1kmM": 271.6,
    "relief2kmM": 346.1,
    "ssrId": 372142,
    "ssrUpdated": null,
    "showAt": 2
   }
  },
  {
   "type": "Feature",
   "geometry": {
    "type": "Point",
    "coordinates": [
     167722.28,
     6832187.46,
     1515.26
    ]
   },
   "properties": {
    "name": "Knutshøe",
    "kind": "peak",
    "kindNo": "Fjell",
    "elevM": 1515.3,
    "relief1kmM": 532.6,
    "relief2kmM": 532.6,
    "ssrId": 372777,
    "ssrUpdated": null,
    "showAt": 2
   }
  },
  {
   "type": "Feature",
   "geometry": {
    "type": "Point",
    "coordinates": [
     165471.57,
     6833234.04,
     987.98
    ]
   },
   "properties": {
    "name": "Leirungsbue",
    "kind": "other",
    "kindNo": "Fritidsbolig",
    "elevM": 988.0,
    "relief1kmM": 3.6,
    "relief2kmM": 3.7,
    "ssrId": 372786,
    "ssrUpdated": null,
    "showAt": 3
   }
  },
  {
   "type": "Feature",
   "geometry": {
    "type": "Point",
    "coordinates": [
     167434.91,
     6841387.31,
     1177.22
    ]
   },
   "properties": {
    "name": "Tjønnholodden",
    "kind": "point",
    "kindNo": "Nes",
    "elevM": 1177.2,
    "relief1kmM": 3.0,
    "relief2kmM": 3.0,
    "ssrId": 374814,
    "ssrUpdated": null,
    "showAt": 3
   }
  },
  {
   "type": "Feature",
   "geometry": {
    "type": "Point",
    "coordinates": [
     173971.86,
     6838085.94,
     1418.34
    ]
   },
   "properties": {
    "name": "Besstrondrundhøe",
    "kind": "peak",
    "kindNo": "Fjell",
    "elevM": 1418.3,
    "relief1kmM": 416.5,
    "relief2kmM": 464.8,
    "ssrId": 374868,
    "ssrUpdated": null,
    "showAt": 2
   }
  },
  {
   "type": "Feature",
   "geometry": {
    "type": "Point",
    "coordinates": [
     171265.24,
     6842464.1,
     1360.3
    ]
   },
   "properties": {
    "name": "Hellertjønne",
    "kind": "tarn",
    "kindNo": "Tjern",
    "elevM": 1360.3,
    "relief1kmM": 67.7,
    "relief2kmM": 208.0,
    "ssrId": 374918,
    "ssrUpdated": null,
    "showAt": 3
   }
  },
  {
   "type": "Feature",
   "geometry": {
    "type": "Point",
    "coordinates": [
     162404.19,
     6836629.14,
     1198.79
    ]
   },
   "properties": {
    "name": "Nedre Russglopet",
    "kind": "valley",
    "kindNo": "Dal",
    "elevM": 1198.8,
    "relief1kmM": 24.4,
    "relief2kmM": 24.6,
    "ssrId": 374928,
    "ssrUpdated": null,
    "showAt": 2
   }
  },
  {
   "type": "Feature",
   "geometry": {
    "type": "Point",
    "coordinates": [
     165512.75,
     6834715.73,
     1124.22
    ]
   },
   "properties": {
    "name": "Bandet",
    "kind": "slope",
    "kindNo": "Bakke",
    "elevM": 1124.2,
    "relief1kmM": 139.8,
    "relief2kmM": 139.9,
    "ssrId": 374966,
    "ssrUpdated": null,
    "showAt": 3
   }
  },
  {
   "type": "Feature",
   "geometry": {
    "type": "Point",
    "coordinates": [
     158991.79,
     6838392.31,
     2301.81
    ]
   },
   "properties": {
    "name": "Sørtoppen",
    "kind": "peak",
    "kindNo": "Fjell",
    "elevM": 2301.8,
    "relief1kmM": 552.0,
    "relief2kmM": 882.9,
    "ssrId": 390101,
    "ssrUpdated": null,
    "showAt": 0
   }
  },
  {
   "type": "Feature",
   "geometry": {
    "type": "Point",
    "coordinates": [
     176189.35,
     6837490.05,
     953.5
    ]
   },
   "properties": {
    "name": "Nørdre Trollbottvika",
    "kind": "point",
    "kindNo": "Vik",
    "elevM": 953.5,
    "relief1kmM": 0.0,
    "relief2kmM": 0.0,
    "ssrId": 409713,
    "ssrUpdated": null,
    "showAt": 3
   }
  },
  {
   "type": "Feature",
   "geometry": {
    "type": "Point",
    "coordinates": [
     172123.07,
     6832279.14,
     973.66
    ]
   },
   "properties": {
    "name": "Moflybekk",
    "kind": "other",
    "kindNo": "Bru",
    "elevM": 973.7,
    "relief1kmM": 11.8,
    "relief2kmM": 19.1,
    "ssrId": 410494,
    "ssrUpdated": null,
    "showAt": 3
   }
  },
  {
   "type": "Feature",
   "geometry": {
    "type": "Point",
    "coordinates": [
     169995.76,
     6828309.1,
     1174.79
    ]
   },
   "properties": {
    "name": "Bygdinvegen",
    "kind": "other",
    "kindNo": "Adressenavn",
    "elevM": 1174.8,
    "relief1kmM": 59.5,
    "relief2kmM": 113.3,
    "ssrId": 423914,
    "ssrUpdated": null,
    "showAt": 3
   }
  },
  {
   "type": "Feature",
   "geometry": {
    "type": "Point",
    "coordinates": [
     170592.23,
     6827224.59,
     1369.03
    ]
   },
   "properties": {
    "name": "Langberget",
    "kind": "ridge",
    "kindNo": "Rygg",
    "elevM": 1369.0,
    "relief1kmM": 217.7,
    "relief2kmM": 248.0,
    "ssrId": 433142,
    "ssrUpdated": null,
    "showAt": 1
   }
  },
  {
   "type": "Feature",
   "geometry": {
    "type": "Point",
    "coordinates": [
     171561.45,
     6832025.29,
     971.6
    ]
   },
   "properties": {
    "name": "Mågåhølen",
    "kind": "stream",
    "kindNo": "Høl",
    "elevM": 971.6,
    "relief1kmM": 5.2,
    "relief2kmM": 13.2,
    "ssrId": 433770,
    "ssrUpdated": null,
    "showAt": 3
   }
  },
  {
   "type": "Feature",
   "geometry": {
    "type": "Point",
    "coordinates": [
     171107.08,
     6831854.96,
     989.47
    ]
   },
   "properties": {
    "name": "Leirungsbuin",
    "kind": "other",
    "kindNo": "Fritidsbolig",
    "elevM": 989.5,
    "relief1kmM": 18.2,
    "relief2kmM": 27.7,
    "ssrId": 433774,
    "ssrUpdated": null,
    "showAt": 3
   }
  },
  {
   "type": "Feature",
   "geometry": {
    "type": "Point",
    "coordinates": [
     157430.39,
     6833312.34,
     1370.0
    ]
   },
   "properties": {
    "name": "Grunnevatnet",
    "kind": "tarn",
    "kindNo": "Tjern",
    "elevM": 1370.0,
    "relief1kmM": 339.9,
    "relief2kmM": 385.8,
    "ssrId": 433786,
    "ssrUpdated": null,
    "showAt": 3
   }
  },
  {
   "type": "Feature",
   "geometry": {
    "type": "Point",
    "coordinates": [
     175551.45,
     6834605.03,
     1032.3
    ]
   },
   "properties": {
    "name": "Storskridubekken",
    "kind": "stream",
    "kindNo": "Bekk",
    "elevM": 1032.3,
    "relief1kmM": 74.1,
    "relief2kmM": 78.8,
    "ssrId": 434838,
    "ssrUpdated": null,
    "showAt": 3
   }
  },
  {
   "type": "Feature",
   "geometry": {
    "type": "Point",
    "coordinates": [
     159542.55,
     6827278.64,
     2249.95
    ]
   },
   "properties": {
    "name": "Skarvflyløyfttinden",
    "kind": "peak",
    "kindNo": "Fjell",
    "elevM": 2250.0,
    "relief1kmM": 508.3,
    "relief2kmM": 643.7,
    "ssrId": 451307,
    "ssrUpdated": null,
    "showAt": 1
   }
  },
  {
   "type": "Feature",
   "geometry": {
    "type": "Point",
    "coordinates": [
     158703.02,
     6837525.11,
     2116.04
    ]
   },
   "properties": {
    "name": "Søre Surtningssue",
    "kind": "peak",
    "kindNo": "Fjell",
    "elevM": 2116.0,
    "relief1kmM": 548.9,
    "relief2kmM": 727.7,
    "ssrId": 451365,
    "ssrUpdated": null,
    "showAt": 1
   }
  },
  {
   "type": "Feature",
   "geometry": {
    "type": "Point",
    "coordinates": [
     172250.08,
     6832647.09,
     972.48
    ]
   },
   "properties": {
    "name": "Maurvangen",
    "kind": "other",
    "kindNo": "Bru",
    "elevM": 972.5,
    "relief1kmM": 12.5,
    "relief2kmM": 18.5,
    "ssrId": 470473,
    "ssrUpdated": null,
    "showAt": 3
   }
  },
  {
   "type": "Feature",
   "geometry": {
    "type": "Point",
    "coordinates": [
     172272.93,
     6834093.67,
     982.95
    ]
   },
   "properties": {
    "name": "Veslelia",
    "kind": "slope",
    "kindNo": "Li",
    "elevM": 983.0,
    "relief1kmM": 29.5,
    "relief2kmM": 29.5,
    "ssrId": 477626,
    "ssrUpdated": null,
    "showAt": 3
   }
  },
  {
   "type": "Feature",
   "geometry": {
    "type": "Point",
    "coordinates": [
     166098.44,
     6828666.12,
     1612.59
    ]
   },
   "properties": {
    "name": "Steinflybekken",
    "kind": "stream",
    "kindNo": "Bekk",
    "elevM": 1612.6,
    "relief1kmM": 315.7,
    "relief2kmM": 481.5,
    "ssrId": 493153,
    "ssrUpdated": null,
    "showAt": 3
   }
  },
  {
   "type": "Feature",
   "geometry": {
    "type": "Point",
    "coordinates": [
     167237.31,
     6830671.52,
     1098.38
    ]
   },
   "properties": {
    "name": "Leirungsdalen",
    "kind": "valley",
    "kindNo": "Dal",
    "elevM": 1098.4,
    "relief1kmM": 64.9,
    "relief2kmM": 115.7,
    "ssrId": 493781,
    "ssrUpdated": null,
    "showAt": 2
   }
  },
  {
   "type": "Feature",
   "geometry": {
    "type": "Point",
    "coordinates": [
     173837.85,
     6834779.08,
     954.25
    ]
   },
   "properties": {
    "name": "Bamfordnaustet",
    "kind": "farm",
    "kindNo": "Bygg for jordbruk, fiske og fangst",
    "elevM": 954.2,
    "relief1kmM": 0.7,
    "relief2kmM": 0.7,
    "ssrId": 495891,
    "ssrUpdated": null,
    "showAt": 3
   }
  },
  {
   "type": "Feature",
   "geometry": {
    "type": "Point",
    "coordinates": [
     172617.8,
     6841833.2,
     1233.97
    ]
   },
   "properties": {
    "name": "Nørdre Tverråe",
    "kind": "river",
    "kindNo": "Elv",
    "elevM": 1234.0,
    "relief1kmM": 114.5,
    "relief2kmM": 174.2,
    "ssrId": 495919,
    "ssrUpdated": null,
    "showAt": 2
   }
  },
  {
   "type": "Feature",
   "geometry": {
    "type": "Point",
    "coordinates": [
     157943.44,
     6837471.75,
     1797.95
    ]
   },
   "properties": {
    "name": "Hestdalen",
    "kind": "valley",
    "kindNo": "Dal",
    "elevM": 1798.0,
    "relief1kmM": 223.6,
    "relief2kmM": 419.3,
    "ssrId": 495932,
    "ssrUpdated": null,
    "showAt": 2
   }
  },
  {
   "type": "Feature",
   "geometry": {
    "type": "Point",
    "coordinates": [
     168210.53,
     6840193.15,
     1302.28
    ]
   },
   "properties": {
    "name": "Grotåe",
    "kind": "river",
    "kindNo": "Elv",
    "elevM": 1302.3,
    "relief1kmM": 128.1,
    "relief2kmM": 128.1,
    "ssrId": 495942,
    "ssrUpdated": null,
    "showAt": 2
   }
  },
  {
   "type": "Feature",
   "geometry": {
    "type": "Point",
    "coordinates": [
     172793.07,
     6835249.08,
     968.0
    ]
   },
   "properties": {
    "name": "Bessa",
    "kind": "other",
    "kindNo": "Bru",
    "elevM": 968.0,
    "relief1kmM": 14.5,
    "relief2kmM": 14.5,
    "ssrId": 531521,
    "ssrUpdated": null,
    "showAt": 3
   }
  },
  {
   "type": "Feature",
   "geometry": {
    "type": "Point",
    "coordinates": [
     172256.1,
     6832679.44,
     972.0
    ]
   },
   "properties": {
    "name": "Maurvangsbrua",
    "kind": "other",
    "kindNo": "Bru",
    "elevM": 972.0,
    "relief1kmM": 12.9,
    "relief2kmM": 18.2,
    "ssrId": 538627,
    "ssrUpdated": null,
    "showAt": 3
   }
  },
  {
   "type": "Feature",
   "geometry": {
    "type": "Point",
    "coordinates": [
     157863.25,
     6827087.33,
     1732.23
    ]
   },
   "properties": {
    "name": "Knutsholet",
    "kind": "cirque",
    "kindNo": "Botn",
    "elevM": 1732.2,
    "relief1kmM": 135.8,
    "relief2kmM": 296.4,
    "ssrId": 553128,
    "ssrUpdated": null,
    "showAt": 3
   }
  },
  {
   "type": "Feature",
   "geometry": {
    "type": "Point",
    "coordinates": [
     173289.34,
     6831940.57,
     1101.39
    ]
   },
   "properties": {
    "name": "Mola",
    "kind": "river",
    "kindNo": "Elv",
    "elevM": 1101.4,
    "relief1kmM": 129.3,
    "relief2kmM": 145.3,
    "ssrId": 553232,
    "ssrUpdated": null,
    "showAt": 2
   }
  },
  {
   "type": "Feature",
   "geometry": {
    "type": "Point",
    "coordinates": [
     157898.88,
     6833732.37,
     1443.5
    ]
   },
   "properties": {
    "name": "Sjugurdtindtjønne",
    "kind": "tarn",
    "kindNo": "Tjern",
    "elevM": 1443.5,
    "relief1kmM": 289.2,
    "relief2kmM": 459.3,
    "ssrId": 554813,
    "ssrUpdated": null,
    "showAt": 3
   }
  },
  {
   "type": "Feature",
   "geometry": {
    "type": "Point",
    "coordinates": [
     173901.61,
     6835772.2,
     959.43
    ]
   },
   "properties": {
    "name": "Bessneset",
    "kind": "point",
    "kindNo": "Nes",
    "elevM": 959.4,
    "relief1kmM": 5.9,
    "relief2kmM": 5.9,
    "ssrId": 555841,
    "ssrUpdated": null,
    "showAt": 3
   }
  },
  {
   "type": "Feature",
   "geometry": {
    "type": "Point",
    "coordinates": [
     173271.2,
     6835538.03,
     963.24
    ]
   },
   "properties": {
    "name": "Bessheim fjellstue",
    "kind": "hut",
    "kindNo": "Hotell",
    "elevM": 963.2,
    "relief1kmM": 9.7,
    "relief2kmM": 9.7,
    "ssrId": 555843,
    "ssrUpdated": null,
    "showAt": 0
   }
  },
  {
   "type": "Feature",
   "geometry": {
    "type": "Point",
    "coordinates": [
     171212.13,
     6841551.93,
     1422.71
    ]
   },
   "properties": {
    "name": "Russhellaren",
    "kind": "peak",
    "kindNo": "Topp",
    "elevM": 1422.7,
    "relief1kmM": 215.5,
    "relief2kmM": 339.5,
    "ssrId": 556901,
    "ssrUpdated": null,
    "showAt": 2
   }
  },
  {
   "type": "Feature",
   "geometry": {
    "type": "Point",
    "coordinates": [
     165407.01,
     6841098.08,
     1175.96
    ]
   },
   "properties": {
    "name": "Blåtjønnodden",
    "kind": "point",
    "kindNo": "Nes",
    "elevM": 1176.0,
    "relief1kmM": 1.7,
    "relief2kmM": 1.7,
    "ssrId": 556904,
    "ssrUpdated": null,
    "showAt": 3
   }
  },
  {
   "type": "Feature",
   "geometry": {
    "type": "Point",
    "coordinates": [
     170559.87,
     6840545.48,
     1178.73
    ]
   },
   "properties": {
    "name": "Russvassbue",
    "kind": "other",
    "kindNo": "Fritidsbolig",
    "elevM": 1178.7,
    "relief1kmM": 32.6,
    "relief2kmM": 83.1,
    "ssrId": 556906,
    "ssrUpdated": null,
    "showAt": 3
   }
  },
  {
   "type": "Feature",
   "geometry": {
    "type": "Point",
    "coordinates": [
     158098.7,
     6842935.29,
     2225.88
    ]
   },
   "properties": {
    "name": "Søraustre Styggehøbreatinden",
    "kind": "peak",
    "kindNo": "Fjell",
    "elevM": 2225.9,
    "relief1kmM": 388.1,
    "relief2kmM": 633.7,
    "ssrId": 572380,
    "ssrUpdated": null,
    "showAt": 1
   }
  },
  {
   "type": "Feature",
   "geometry": {
    "type": "Point",
    "coordinates": [
     171002.9,
     6833226.87,
     983.63
    ]
   },
   "properties": {
    "name": "Sjoa",
    "kind": "river",
    "kindNo": "Elv",
    "elevM": 983.6,
    "relief1kmM": 10.2,
    "relief2kmM": 29.1,
    "ssrId": 614796,
    "ssrUpdated": null,
    "showAt": 2
   }
  },
  {
   "type": "Feature",
   "geometry": {
    "type": "Point",
    "coordinates": [
     157520.29,
     6833023.49,
     1406.3
    ]
   },
   "properties": {
    "name": "Lågtunga",
    "kind": "peak",
    "kindNo": "Fjell",
    "elevM": 1406.3,
    "relief1kmM": 422.0,
    "relief2kmM": 422.1,
    "ssrId": 614800,
    "ssrUpdated": null,
    "showAt": 2
   }
  },
  {
   "type": "Feature",
   "geometry": {
    "type": "Point",
    "coordinates": [
     175649.89,
     6836854.08,
     955.51
    ]
   },
   "properties": {
    "name": "Brennsvaodden",
    "kind": "point",
    "kindNo": "Nes",
    "elevM": 955.5,
    "relief1kmM": 2.0,
    "relief2kmM": 2.0,
    "ssrId": 616868,
    "ssrUpdated": null,
    "showAt": 3
   }
  },
  {
   "type": "Feature",
   "geometry": {
    "type": "Point",
    "coordinates": [
     160627.33,
     6842891.71,
     1574.54
    ]
   },
   "properties": {
    "name": "Blåtjønnin",
    "kind": "tarn",
    "kindNo": "Gruppe av tjern",
    "elevM": 1574.5,
    "relief1kmM": 36.7,
    "relief2kmM": 71.5,
    "ssrId": 616935,
    "ssrUpdated": null,
    "showAt": 3
   }
  },
  {
   "type": "Feature",
   "geometry": {
    "type": "Point",
    "coordinates": [
     161469.68,
     6837552.31,
     1366.72
    ]
   },
   "properties": {
    "name": "Russglopet, øvre",
    "kind": "valley",
    "kindNo": "Dal",
    "elevM": 1366.7,
    "relief1kmM": 156.2,
    "relief2kmM": 192.5,
    "ssrId": 616948,
    "ssrUpdated": null,
    "showAt": 2
   }
  },
  {
   "type": "Feature",
   "geometry": {
    "type": "Point",
    "coordinates": [
     172093.47,
     6840216.25,
     1118.26
    ]
   },
   "properties": {
    "name": "Saubue",
    "kind": "farm",
    "kindNo": "Bygg for jordbruk, fiske og fangst",
    "elevM": 1118.3,
    "relief1kmM": 41.3,
    "relief2kmM": 56.9,
    "ssrId": 616952,
    "ssrUpdated": null,
    "showAt": 3
   }
  },
  {
   "type": "Feature",
   "geometry": {
    "type": "Point",
    "coordinates": [
     166737.7,
     6834995.42,
     1632.76
    ]
   },
   "properties": {
    "name": "Besseggen",
    "kind": "ridge",
    "kindNo": "Egg",
    "elevM": 1632.8,
    "relief1kmM": 648.4,
    "relief2kmM": 648.4,
    "ssrId": 616966,
    "ssrUpdated": null,
    "showAt": 1
   }
  },
  {
   "type": "Feature",
   "geometry": {
    "type": "Point",
    "coordinates": [
     171221.97,
     6832852.45,
     978.7
    ]
   },
   "properties": {
    "name": "Veslehølen",
    "kind": "stream",
    "kindNo": "Høl",
    "elevM": 978.7,
    "relief1kmM": 9.2,
    "relief2kmM": 24.0,
    "ssrId": 659607,
    "ssrUpdated": null,
    "showAt": 3
   }
  },
  {
   "type": "Feature",
   "geometry": {
    "type": "Point",
    "coordinates": [
     175377.69,
     6836860.39,
     953.6
    ]
   },
   "properties": {
    "name": "Sjodalsvatnet, øvre",
    "kind": "lake",
    "kindNo": "Innsjø",
    "elevM": 953.6,
    "relief1kmM": 0.1,
    "relief2kmM": 0.1,
    "ssrId": 659867,
    "ssrUpdated": null,
    "showAt": 1
   }
  },
  {
   "type": "Feature",
   "geometry": {
    "type": "Point",
    "coordinates": [
     165261.3,
     6830563.4,
     1591.9
    ]
   },
   "properties": {
    "name": "Bukkehåmårtjønne",
    "kind": "tarn",
    "kindNo": "Tjern",
    "elevM": 1591.9,
    "relief1kmM": 178.6,
    "relief2kmM": 558.6,
    "ssrId": 675780,
    "ssrUpdated": null,
    "showAt": 3
   }
  },
  {
   "type": "Feature",
   "geometry": {
    "type": "Point",
    "coordinates": [
     164358.71,
     6832560.44,
     1532.34
    ]
   },
   "properties": {
    "name": "Veslløyfttinden",
    "kind": "peak",
    "kindNo": "Fjell",
    "elevM": 1532.3,
    "relief1kmM": 547.9,
    "relief2kmM": 548.0,
    "ssrId": 675790,
    "ssrUpdated": null,
    "showAt": 2
   }
  },
  {
   "type": "Feature",
   "geometry": {
    "type": "Point",
    "coordinates": [
     160702.6,
     6832577.21,
     988.59
    ]
   },
   "properties": {
    "name": "Tjønnholodden",
    "kind": "point",
    "kindNo": "Nes",
    "elevM": 988.6,
    "relief1kmM": 4.3,
    "relief2kmM": 4.4,
    "ssrId": 675797,
    "ssrUpdated": null,
    "showAt": 3
   }
  },
  {
   "type": "Feature",
   "geometry": {
    "type": "Point",
    "coordinates": [
     175063.32,
     6836515.31,
     953.54
    ]
   },
   "properties": {
    "name": "Mariholmen",
    "kind": "point",
    "kindNo": "Holme",
    "elevM": 953.5,
    "relief1kmM": 0.0,
    "relief2kmM": 0.0,
    "ssrId": 677862,
    "ssrUpdated": null,
    "showAt": 3
   }
  },
  {
   "type": "Feature",
   "geometry": {
    "type": "Point",
    "coordinates": [
     175100.62,
     6836067.09,
     953.51
    ]
   },
   "properties": {
    "name": "Hoskevikje",
    "kind": "point",
    "kindNo": "Vik",
    "elevM": 953.5,
    "relief1kmM": 0.0,
    "relief2kmM": 0.0,
    "ssrId": 677864,
    "ssrUpdated": null,
    "showAt": 3
   }
  },
  {
   "type": "Feature",
   "geometry": {
    "type": "Point",
    "coordinates": [
     174699.92,
     6836051.01,
     955.0
    ]
   },
   "properties": {
    "name": "Hoskeodden",
    "kind": "point",
    "kindNo": "Nes",
    "elevM": 955.0,
    "relief1kmM": 1.5,
    "relief2kmM": 1.5,
    "ssrId": 677874,
    "ssrUpdated": null,
    "showAt": 3
   }
  },
  {
   "type": "Feature",
   "geometry": {
    "type": "Point",
    "coordinates": [
     168391.75,
     6836871.73,
     1373.0
    ]
   },
   "properties": {
    "name": "Bessvatnet",
    "kind": "lake",
    "kindNo": "Vann",
    "elevM": 1373.0,
    "relief1kmM": 1.3,
    "relief2kmM": 1.3,
    "ssrId": 677943,
    "ssrUpdated": null,
    "showAt": 1
   }
  },
  {
   "type": "Feature",
   "geometry": {
    "type": "Point",
    "coordinates": [
     174875.82,
     6837565.53,
     998.06
    ]
   },
   "properties": {
    "name": "Mosbakken",
    "kind": "slope",
    "kindNo": "Bakke",
    "elevM": 998.1,
    "relief1kmM": 44.6,
    "relief2kmM": 44.6,
    "ssrId": 678829,
    "ssrUpdated": null,
    "showAt": 3
   }
  },
  {
   "type": "Feature",
   "geometry": {
    "type": "Point",
    "coordinates": [
     157784.49,
     6842799.29,
     2204.03
    ]
   },
   "properties": {
    "name": "Sørvestre Styggehøbreatinden",
    "kind": "peak",
    "kindNo": "Fjell",
    "elevM": 2204.0,
    "relief1kmM": 354.6,
    "relief2kmM": 586.9,
    "ssrId": 694342,
    "ssrUpdated": null,
    "showAt": 1
   }
  },
  {
   "type": "Feature",
   "geometry": {
    "type": "Point",
    "coordinates": [
     156845.85,
     6827015.5,
     2333.05
    ]
   },
   "properties": {
    "name": "Knutsholstinden",
    "kind": "peak",
    "kindNo": "Fjell",
    "elevM": 2333.0,
    "relief1kmM": 710.9,
    "relief2kmM": 897.2,
    "ssrId": 735131,
    "ssrUpdated": null,
    "showAt": 0
   }
  },
  {
   "type": "Feature",
   "geometry": {
    "type": "Point",
    "coordinates": [
     175800.25,
     6838491.13,
     981.89
    ]
   },
   "properties": {
    "name": "Mosbesstronde",
    "kind": "farm",
    "kindNo": "Seter/støl",
    "elevM": 981.9,
    "relief1kmM": 28.4,
    "relief2kmM": 28.4,
    "ssrId": 738863,
    "ssrUpdated": null,
    "showAt": 3
   }
  },
  {
   "type": "Feature",
   "geometry": {
    "type": "Point",
    "coordinates": [
     175447.28,
     6836630.41,
     958.45
    ]
   },
   "properties": {
    "name": "Brennsvanebban",
    "kind": "point",
    "kindNo": "Nes",
    "elevM": 958.5,
    "relief1kmM": 5.0,
    "relief2kmM": 5.0,
    "ssrId": 738883,
    "ssrUpdated": null,
    "showAt": 3
   }
  },
  {
   "type": "Feature",
   "geometry": {
    "type": "Point",
    "coordinates": [
     157300.57,
     6843139.84,
     2133.44
    ]
   },
   "properties": {
    "name": "Styggehøbreskardet",
    "kind": "pass",
    "kindNo": "Skar",
    "elevM": 2133.4,
    "relief1kmM": 284.2,
    "relief2kmM": 465.0,
    "ssrId": 738925,
    "ssrUpdated": null,
    "showAt": 2
   }
  },
  {
   "type": "Feature",
   "geometry": {
    "type": "Point",
    "coordinates": [
     162635.91,
     6838585.12,
     1180.05
    ]
   },
   "properties": {
    "name": "Blackwellbue",
    "kind": "farm",
    "kindNo": "Bygg for jordbruk, fiske og fangst",
    "elevM": 1180.1,
    "relief1kmM": 5.9,
    "relief2kmM": 5.9,
    "ssrId": 738943,
    "ssrUpdated": null,
    "showAt": 3
   }
  },
  {
   "type": "Feature",
   "geometry": {
    "type": "Point",
    "coordinates": [
     171214.74,
     6834083.14,
     1161.99
    ]
   },
   "properties": {
    "name": "Gjendehalsen",
    "kind": "pass",
    "kindNo": "Skar",
    "elevM": 1162.0,
    "relief1kmM": 180.0,
    "relief2kmM": 208.5,
    "ssrId": 738956,
    "ssrUpdated": null,
    "showAt": 2
   }
  },
  {
   "type": "Feature",
   "geometry": {
    "type": "Point",
    "coordinates": [
     168799.82,
     6834027.01,
     989.85
    ]
   },
   "properties": {
    "name": "Hamnsanden",
    "kind": "point",
    "kindNo": "Sand",
    "elevM": 989.8,
    "relief1kmM": 5.4,
    "relief2kmM": 7.1,
    "ssrId": 754323,
    "ssrUpdated": null,
    "showAt": 3
   }
  },
  {
   "type": "Feature",
   "geometry": {
    "type": "Point",
    "coordinates": [
     159333.76,
     6828861.88,
     1800.42
    ]
   },
   "properties": {
    "name": "Aust-Jotunheimen",
    "kind": "other",
    "kindNo": "Fjellområde",
    "elevM": 1800.4,
    "relief1kmM": 170.4,
    "relief2kmM": 341.0,
    "ssrId": 754645,
    "ssrUpdated": null,
    "showAt": 3
   }
  },
  {
   "type": "Feature",
   "geometry": {
    "type": "Point",
    "coordinates": [
     167110.76,
     6827408.78,
     1240.9
    ]
   },
   "properties": {
    "name": "Svarthåmårbue",
    "kind": "other",
    "kindNo": "Tuft",
    "elevM": 1240.9,
    "relief1kmM": 64.2,
    "relief2kmM": 111.6,
    "ssrId": 797135,
    "ssrUpdated": null,
    "showAt": 3
   }
  },
  {
   "type": "Feature",
   "geometry": {
    "type": "Point",
    "coordinates": [
     158365.17,
     6829034.9,
     2053.62
    ]
   },
   "properties": {
    "name": "Nørdre Skarvflytinden",
    "kind": "peak",
    "kindNo": "Fjell",
    "elevM": 2053.6,
    "relief1kmM": 582.5,
    "relief2kmM": 913.1,
    "ssrId": 797763,
    "ssrUpdated": null,
    "showAt": 0
   }
  },
  {
   "type": "Feature",
   "geometry": {
    "type": "Point",
    "coordinates": [
     169483.8,
     6828405.58,
     1147.09
    ]
   },
   "properties": {
    "name": "Leirungsmyrin",
    "kind": "other",
    "kindNo": "Myr",
    "elevM": 1147.1,
    "relief1kmM": 40.1,
    "relief2kmM": 89.3,
    "ssrId": 797764,
    "ssrUpdated": null,
    "showAt": 3
   }
  },
  {
   "type": "Feature",
   "geometry": {
    "type": "Point",
    "coordinates": [
     156040.89,
     6832292.92,
     1442.76
    ]
   },
   "properties": {
    "name": "Kjuklingen",
    "kind": "peak",
    "kindNo": "Haug",
    "elevM": 1442.8,
    "relief1kmM": 458.5,
    "relief2kmM": 458.5,
    "ssrId": 797773,
    "ssrUpdated": null,
    "showAt": 2
   }
  },
  {
   "type": "Feature",
   "geometry": {
    "type": "Point",
    "coordinates": [
     164406.42,
     6834517.38,
     1024.47
    ]
   },
   "properties": {
    "name": "Bjørnbølet",
    "kind": "slope",
    "kindNo": "Stup",
    "elevM": 1024.5,
    "relief1kmM": 40.2,
    "relief2kmM": 40.2,
    "ssrId": 797780,
    "ssrUpdated": null,
    "showAt": 3
   }
  },
  {
   "type": "Feature",
   "geometry": {
    "type": "Point",
    "coordinates": [
     164510.76,
     6836742.77,
     2257.38
    ]
   },
   "properties": {
    "name": "Besshøe",
    "kind": "peak",
    "kindNo": "Fjell",
    "elevM": 2257.4,
    "relief1kmM": 892.9,
    "relief2kmM": 1083.0,
    "ssrId": 799935,
    "ssrUpdated": null,
    "showAt": 0
   }
  },
  {
   "type": "Feature",
   "geometry": {
    "type": "Point",
    "coordinates": [
     159800.94,
     6836652.25,
     1448.16
    ]
   },
   "properties": {
    "name": "Glopåe",
    "kind": "stream",
    "kindNo": "Bekk",
    "elevM": 1448.2,
    "relief1kmM": 61.8,
    "relief2kmM": 251.5,
    "ssrId": 799936,
    "ssrUpdated": null,
    "showAt": 3
   }
  },
  {
   "type": "Feature",
   "geometry": {
    "type": "Point",
    "coordinates": [
     171912.68,
     6836405.45,
     1273.09
    ]
   },
   "properties": {
    "name": "Bessa",
    "kind": "river",
    "kindNo": "Elv",
    "elevM": 1273.1,
    "relief1kmM": 229.0,
    "relief2kmM": 319.6,
    "ssrId": 799938,
    "ssrUpdated": null,
    "showAt": 2
   }
  },
  {
   "type": "Feature",
   "geometry": {
    "type": "Point",
    "coordinates": [
     171813.37,
     6837448.81,
     1357.0
    ]
   },
   "properties": {
    "name": "Besstjønnin",
    "kind": "tarn",
    "kindNo": "Gruppe av tjern",
    "elevM": 1357.0,
    "relief1kmM": 86.5,
    "relief2kmM": 323.3,
    "ssrId": 799939,
    "ssrUpdated": null,
    "showAt": 3
   }
  },
  {
   "type": "Feature",
   "geometry": {
    "type": "Point",
    "coordinates": [
     170848.22,
     6838005.78,
     1517.4
    ]
   },
   "properties": {
    "name": "Bessheimrundhøe",
    "kind": "peak",
    "kindNo": "Fjell",
    "elevM": 1517.4,
    "relief1kmM": 269.7,
    "relief2kmM": 393.6,
    "ssrId": 799940,
    "ssrUpdated": null,
    "showAt": 2
   }
  },
  {
   "type": "Feature",
   "geometry": {
    "type": "Point",
    "coordinates": [
     165523.82,
     6833039.24,
     1039.29
    ]
   },
   "properties": {
    "name": "Rathbonebue",
    "kind": "farm",
    "kindNo": "Bygg for jordbruk, fiske og fangst",
    "elevM": 1039.3,
    "relief1kmM": 54.9,
    "relief2kmM": 55.0,
    "ssrId": 815262,
    "ssrUpdated": null,
    "showAt": 3
   }
  },
  {
   "type": "Feature",
   "geometry": {
    "type": "Point",
    "coordinates": [
     159476.47,
     6827751.55,
     2203.04
    ]
   },
   "properties": {
    "name": "Søre Skarvflytinden",
    "kind": "peak",
    "kindNo": "Fjell",
    "elevM": 2203.0,
    "relief1kmM": 462.6,
    "relief2kmM": 653.1,
    "ssrId": 815274,
    "ssrUpdated": null,
    "showAt": 1
   }
  },
  {
   "type": "Feature",
   "geometry": {
    "type": "Point",
    "coordinates": [
     160300.35,
     6838508.89,
     2029.63
    ]
   },
   "properties": {
    "name": "Nestaustre Surtningssue",
    "kind": "peak",
    "kindNo": "Fjell",
    "elevM": 2029.6,
    "relief1kmM": 491.9,
    "relief2kmM": 776.9,
    "ssrId": 815356,
    "ssrUpdated": null,
    "showAt": 1
   }
  },
  {
   "type": "Feature",
   "geometry": {
    "type": "Point",
    "coordinates": [
     175449.25,
     6832155.62,
     1397.57
    ]
   },
   "properties": {
    "name": "Nørdre Gåpåpiggen",
    "kind": "peak",
    "kindNo": "Fjell",
    "elevM": 1397.6,
    "relief1kmM": 321.1,
    "relief2kmM": 422.3,
    "ssrId": 857249,
    "ssrUpdated": null,
    "showAt": 2
   }
  },
  {
   "type": "Feature",
   "geometry": {
    "type": "Point",
    "coordinates": [
     159098.94,
     6828748.01,
     1749.7
    ]
   },
   "properties": {
    "name": "Skarvflybrean",
    "kind": "glacier",
    "kindNo": "Isbre",
    "elevM": 1749.7,
    "relief1kmM": 125.3,
    "relief2kmM": 334.6,
    "ssrId": 858144,
    "ssrUpdated": null,
    "showAt": 2
   }
  },
  {
   "type": "Feature",
   "geometry": {
    "type": "Point",
    "coordinates": [
     162883.96,
     6829041.6,
     2010.88
    ]
   },
   "properties": {
    "name": "Steinflybrean",
    "kind": "glacier",
    "kindNo": "Isbre",
    "elevM": 2010.9,
    "relief1kmM": 119.1,
    "relief2kmM": 379.9,
    "ssrId": 858788,
    "ssrUpdated": null,
    "showAt": 2
   }
  },
  {
   "type": "Feature",
   "geometry": {
    "type": "Point",
    "coordinates": [
     171496.91,
     6832667.57,
     975.6
    ]
   },
   "properties": {
    "name": "Kråkehølen",
    "kind": "stream",
    "kindNo": "Høl",
    "elevM": 975.6,
    "relief1kmM": 12.9,
    "relief2kmM": 20.9,
    "ssrId": 858798,
    "ssrUpdated": null,
    "showAt": 3
   }
  },
  {
   "type": "Feature",
   "geometry": {
    "type": "Point",
    "coordinates": [
     173440.59,
     6836333.65,
     1093.86
    ]
   },
   "properties": {
    "name": "Menesbakken",
    "kind": "slope",
    "kindNo": "Bakke",
    "elevM": 1093.9,
    "relief1kmM": 140.4,
    "relief2kmM": 140.4,
    "ssrId": 859842,
    "ssrUpdated": null,
    "showAt": 3
   }
  },
  {
   "type": "Feature",
   "geometry": {
    "type": "Point",
    "coordinates": [
     165437.3,
     6836746.81,
     2043.6
    ]
   },
   "properties": {
    "name": "Brue",
    "kind": "slope",
    "kindNo": "Bakke",
    "elevM": 2043.6,
    "relief1kmM": 640.4,
    "relief2kmM": 895.7,
    "ssrId": 860937,
    "ssrUpdated": null,
    "showAt": 3
   }
  },
  {
   "type": "Feature",
   "geometry": {
    "type": "Point",
    "coordinates": [
     162108.86,
     6837534.16,
     1671.3
    ]
   },
   "properties": {
    "name": "Gloptinden",
    "kind": "peak",
    "kindNo": "Fjell",
    "elevM": 1671.3,
    "relief1kmM": 496.9,
    "relief2kmM": 497.1,
    "ssrId": 860941,
    "ssrUpdated": null,
    "showAt": 2
   }
  },
  {
   "type": "Feature",
   "geometry": {
    "type": "Point",
    "coordinates": [
     157557.05,
     6836773.33,
     1891.33
    ]
   },
   "properties": {
    "name": "Raudhamran",
    "kind": "peak",
    "kindNo": "Topp",
    "elevM": 1891.3,
    "relief1kmM": 471.3,
    "relief2kmM": 718.1,
    "ssrId": 860942,
    "ssrUpdated": null,
    "showAt": 1
   }
  },
  {
   "type": "Feature",
   "geometry": {
    "type": "Point",
    "coordinates": [
     167148.82,
     6838205.56,
     1785.7
    ]
   },
   "properties": {
    "name": "Bukkehøe",
    "kind": "peak",
    "kindNo": "Topp",
    "elevM": 1785.7,
    "relief1kmM": 384.3,
    "relief2kmM": 446.1,
    "ssrId": 860947,
    "ssrUpdated": null,
    "showAt": 2
   }
  },
  {
   "type": "Feature",
   "geometry": {
    "type": "Point",
    "coordinates": [
     163881.45,
     6839866.5,
     1176.2
    ]
   },
   "properties": {
    "name": "Russvatnet",
    "kind": "lake",
    "kindNo": "Vann",
    "elevM": 1176.2,
    "relief1kmM": 1.9,
    "relief2kmM": 2.0,
    "ssrId": 860952,
    "ssrUpdated": null,
    "showAt": 1
   }
  },
  {
   "type": "Feature",
   "geometry": {
    "type": "Point",
    "coordinates": [
     175717.79,
     6833471.0,
     1142.43
    ]
   },
   "properties": {
    "name": "Sikilsdalsmunnin",
    "kind": "slope",
    "kindNo": "Li",
    "elevM": 1142.4,
    "relief1kmM": 160.1,
    "relief2kmM": 183.6,
    "ssrId": 903602,
    "ssrUpdated": null,
    "showAt": 3
   }
  },
  {
   "type": "Feature",
   "geometry": {
    "type": "Point",
    "coordinates": [
     172205.68,
     6829383.8,
     1338.96
    ]
   },
   "properties": {
    "name": "Brurskardet",
    "kind": "pass",
    "kindNo": "Skar",
    "elevM": 1339.0,
    "relief1kmM": 111.5,
    "relief2kmM": 294.6,
    "ssrId": 918278,
    "ssrUpdated": null,
    "showAt": 2
   }
  },
  {
   "type": "Feature",
   "geometry": {
    "type": "Point",
    "coordinates": [
     175705.07,
     6828982.14,
     1753.84
    ]
   },
   "properties": {
    "name": "Neveråskardet",
    "kind": "pass",
    "kindNo": "Skar",
    "elevM": 1753.8,
    "relief1kmM": 207.9,
    "relief2kmM": 359.2,
    "ssrId": 918281,
    "ssrUpdated": null,
    "showAt": 2
   }
  },
  {
   "type": "Feature",
   "geometry": {
    "type": "Point",
    "coordinates": [
     166257.4,
     6832326.63,
     1033.3
    ]
   },
   "properties": {
    "name": "Leirungen, øvre",
    "kind": "lake",
    "kindNo": "Vann",
    "elevM": 1033.3,
    "relief1kmM": 36.4,
    "relief2kmM": 48.9,
    "ssrId": 918817,
    "ssrUpdated": null,
    "showAt": 1
   }
  },
  {
   "type": "Feature",
   "geometry": {
    "type": "Point",
    "coordinates": [
     172454.68,
     6832667.75,
     972.15
    ]
   },
   "properties": {
    "name": "Maurvangen",
    "kind": "hut",
    "kindNo": "Campingplass",
    "elevM": 972.1,
    "relief1kmM": 14.3,
    "relief2kmM": 18.4,
    "ssrId": 918821,
    "ssrUpdated": null,
    "showAt": 0
   }
  },
  {
   "type": "Feature",
   "geometry": {
    "type": "Point",
    "coordinates": [
     158173.14,
     6833013.33,
     1286.6
    ]
   },
   "properties": {
    "name": "Ånde",
    "kind": "tarn",
    "kindNo": "Tjern",
    "elevM": 1286.6,
    "relief1kmM": 302.3,
    "relief2kmM": 302.4,
    "ssrId": 918825,
    "ssrUpdated": null,
    "showAt": 3
   }
  },
  {
   "type": "Feature",
   "geometry": {
    "type": "Point",
    "coordinates": [
     161241.38,
     6834047.45,
     1010.77
    ]
   },
   "properties": {
    "name": "Memurubu",
    "kind": "hut",
    "kindNo": "Turisthytte",
    "elevM": 1010.8,
    "relief1kmM": 26.5,
    "relief2kmM": 26.5,
    "ssrId": 918832,
    "ssrUpdated": null,
    "showAt": 0
   }
  },
  {
   "type": "Feature",
   "geometry": {
    "type": "Point",
    "coordinates": [
     174989.94,
     6839494.18,
     1212.6
    ]
   },
   "properties": {
    "name": "Besstrondtjønnin",
    "kind": "tarn",
    "kindNo": "Gruppe av tjern",
    "elevM": 1212.6,
    "relief1kmM": 159.5,
    "relief2kmM": 259.1,
    "ssrId": 920850,
    "ssrUpdated": null,
    "showAt": 3
   }
  },
  {
   "type": "Feature",
   "geometry": {
    "type": "Point",
    "coordinates": [
     174461.77,
     6834551.38,
     966.2
    ]
   },
   "properties": {
    "name": "Hosketjønnin",
    "kind": "tarn",
    "kindNo": "Gruppe av tjern",
    "elevM": 966.2,
    "relief1kmM": 12.7,
    "relief2kmM": 12.7,
    "ssrId": 920886,
    "ssrUpdated": null,
    "showAt": 3
   }
  },
  {
   "type": "Feature",
   "geometry": {
    "type": "Point",
    "coordinates": [
     158819.39,
     6841071.45,
     1757.16
    ]
   },
   "properties": {
    "name": "Blåbrean",
    "kind": "glacier",
    "kindNo": "Isbre",
    "elevM": 1757.2,
    "relief1kmM": 105.3,
    "relief2kmM": 202.9,
    "ssrId": 920915,
    "ssrUpdated": null,
    "showAt": 2
   }
  },
  {
   "type": "Feature",
   "geometry": {
    "type": "Point",
    "coordinates": [
     164699.6,
     6842204.19,
     1296.57
    ]
   },
   "properties": {
    "name": "Blåtjønnåe",
    "kind": "river",
    "kindNo": "Elv",
    "elevM": 1296.6,
    "relief1kmM": 111.8,
    "relief2kmM": 122.3,
    "ssrId": 920920,
    "ssrUpdated": null,
    "showAt": 2
   }
  },
  {
   "type": "Feature",
   "geometry": {
    "type": "Point",
    "coordinates": [
     167329.58,
     6843044.21,
     1356.86
    ]
   },
   "properties": {
    "name": "Tjønnholåe",
    "kind": "river",
    "kindNo": "Elv",
    "elevM": 1356.9,
    "relief1kmM": 130.5,
    "relief2kmM": 182.7,
    "ssrId": 920924,
    "ssrUpdated": null,
    "showAt": 2
   }
  },
  {
   "type": "Feature",
   "geometry": {
    "type": "Point",
    "coordinates": [
     158615.39,
     6839136.16,
     2366.84
    ]
   },
   "properties": {
    "name": "Surtningssue",
    "kind": "peak",
    "kindNo": "Fjell",
    "elevM": 2366.8,
    "relief1kmM": 538.1,
    "relief2kmM": 742.9,
    "ssrId": 920936,
    "ssrUpdated": null,
    "showAt": 0
   }
  },
  {
   "type": "Feature",
   "geometry": {
    "type": "Point",
    "coordinates": [
     156600.26,
     6828142.79,
     2183.91
    ]
   },
   "properties": {
    "name": "Nestnørdre Knutsholstinden",
    "kind": "peak",
    "kindNo": "Fjell",
    "elevM": 2183.9,
    "relief1kmM": 742.4,
    "relief2kmM": 895.5,
    "ssrId": 936219,
    "ssrUpdated": null,
    "showAt": 0
   }
  },
  {
   "type": "Feature",
   "geometry": {
    "type": "Point",
    "coordinates": [
     167062.02,
     6828828.21,
     1305.87
    ]
   },
   "properties": {
    "name": "Steinflybakkan",
    "kind": "slope",
    "kindNo": "Li",
    "elevM": 1305.9,
    "relief1kmM": 152.4,
    "relief2kmM": 263.9,
    "ssrId": 936250,
    "ssrUpdated": null,
    "showAt": 3
   }
  },
  {
   "type": "Feature",
   "geometry": {
    "type": "Point",
    "coordinates": [
     159320.59,
     6838256.51,
     2226.4
    ]
   },
   "properties": {
    "name": "Midtre Surtningssue",
    "kind": "peak",
    "kindNo": "Fjell",
    "elevM": 2226.4,
    "relief1kmM": 573.7,
    "relief2kmM": 841.1,
    "ssrId": 936335,
    "ssrUpdated": null,
    "showAt": 0
   }
  },
  {
   "type": "Feature",
   "geometry": {
    "type": "Point",
    "coordinates": [
     157814.75,
     6842256.63,
     2139.47
    ]
   },
   "properties": {
    "name": "Nørdre Blåbreahøe",
    "kind": "peak",
    "kindNo": "Fjell",
    "elevM": 2139.5,
    "relief1kmM": 390.3,
    "relief2kmM": 523.5,
    "ssrId": 936337,
    "ssrUpdated": null,
    "showAt": 1
   }
  },
  {
   "type": "Feature",
   "geometry": {
    "type": "Point",
    "coordinates": [
     172292.42,
     6832800.93,
     972.3
    ]
   },
   "properties": {
    "name": "Sjodalsvegen",
    "kind": "other",
    "kindNo": "Adressenavn",
    "elevM": 972.3,
    "relief1kmM": 14.7,
    "relief2kmM": 18.8,
    "ssrId": 989549,
    "ssrUpdated": null,
    "showAt": 3
   }
  },
  {
   "type": "Feature",
   "geometry": {
    "type": "Point",
    "coordinates": [
     169998.8,
     6828313.6,
     1174.7
    ]
   },
   "properties": {
    "name": "Valdresflyvegen",
    "kind": "other",
    "kindNo": "Adressenavn",
    "elevM": 1174.7,
    "relief1kmM": 59.5,
    "relief2kmM": 113.2,
    "ssrId": 989550,
    "ssrUpdated": null,
    "showAt": 3
   }
  },
  {
   "type": "Feature",
   "geometry": {
    "type": "Point",
    "coordinates": [
     172292.42,
     6832800.93,
     972.3
    ]
   },
   "properties": {
    "name": "Gjendevegen",
    "kind": "other",
    "kindNo": "Adressenavn",
    "elevM": 972.3,
    "relief1kmM": 14.7,
    "relief2kmM": 18.8,
    "ssrId": 989911,
    "ssrUpdated": null,
    "showAt": 3
   }
  },
  {
   "type": "Feature",
   "geometry": {
    "type": "Point",
    "coordinates": [
     172244.69,
     6832623.89,
     972.81
    ]
   },
   "properties": {
    "name": "Hoskelivegen",
    "kind": "other",
    "kindNo": "Adressenavn",
    "elevM": 972.8,
    "relief1kmM": 12.7,
    "relief2kmM": 18.8,
    "ssrId": 989912,
    "ssrUpdated": null,
    "showAt": 3
   }
  },
  {
   "type": "Feature",
   "geometry": {
    "type": "Point",
    "coordinates": [
     173283.5,
     6833193.7,
     980.62
    ]
   },
   "properties": {
    "name": "Gåpåvegen",
    "kind": "other",
    "kindNo": "Adressenavn",
    "elevM": 980.6,
    "relief1kmM": 26.2,
    "relief2kmM": 27.1,
    "ssrId": 989913,
    "ssrUpdated": null,
    "showAt": 3
   }
  },
  {
   "type": "Feature",
   "geometry": {
    "type": "Point",
    "coordinates": [
     173187.3,
     6833300.0,
     971.0
    ]
   },
   "properties": {
    "name": "Gåpåslyngen",
    "kind": "other",
    "kindNo": "Adressenavn",
    "elevM": 971.0,
    "relief1kmM": 16.7,
    "relief2kmM": 17.5,
    "ssrId": 989914,
    "ssrUpdated": null,
    "showAt": 3
   }
  },
  {
   "type": "Feature",
   "geometry": {
    "type": "Point",
    "coordinates": [
     173311.2,
     6833929.4,
     967.35
    ]
   },
   "properties": {
    "name": "Harevegen",
    "kind": "other",
    "kindNo": "Adressenavn",
    "elevM": 967.3,
    "relief1kmM": 13.8,
    "relief2kmM": 13.8,
    "ssrId": 989915,
    "ssrUpdated": null,
    "showAt": 3
   }
  },
  {
   "type": "Feature",
   "geometry": {
    "type": "Point",
    "coordinates": [
     171343.17,
     6831575.55,
     1006.43
    ]
   },
   "properties": {
    "name": "Leirungsvegen",
    "kind": "other",
    "kindNo": "Adressenavn",
    "elevM": 1006.4,
    "relief1kmM": 35.3,
    "relief2kmM": 44.5,
    "ssrId": 989916,
    "ssrUpdated": null,
    "showAt": 3
   }
  }
 ]
}
